name,address,city,state,zip,full_address,farm_type,produce,phone,website,distance,hours
3D Blueberry Farm,41031 Highway 1056,Franklington,LA,,"41031 Highway 1056, Franklington, Louisiana 70438","U-Pick Farm, Orchard",Blueberries,,,,
86th Street Orchard,86th Street Orchard,,,,"86th Street Orchard, 5332 NW 86th Street","U-Pick Farm, Orchard","Apples, Blackberries",,,,
Abbott Farms,3275 Cold Springs Road,Baldwinsville,NY,,"3275 Cold Springs Road, Baldwinsville, New York 13027","U-Pick Farm, Orchard","Apples, Blueberries, Cherries, Prunes, Pumpkins, Raspberries, Strawberries",,,,
Adam’s Berry Farm,985 Bingham Brook Rd,Charlotte,VT,,"985 Bingham Brook Rd, Charlotte, Vermont 05445","U-Pick Farm, Orchard","Blueberries, Raspberries, Strawberries",,,,
Adams Farm,1486 Georgia Highway 54 West,Fayetteville,GA,,"1486 Georgia Highway 54 West, Fayetteville, Georgia 30214","U-Pick Farm, Orchard","Blackberries, Blueberries, Raspberries, Strawberries",,,,
Afton Apple Orchard,14421 So. 90th St,Hastings,,,"14421 So. 90th St, Hastings, 1021 55033","U-Pick Farm, Orchard","Apples, Pumpkins, Raspberries, Strawberries",,,,
Agape House Berry Farm,10912 S Czech Hall Rd,Mustang,OK,,"10912 S Czech Hall Rd, Mustang, Oklahoma 73064","U-Pick Farm, Orchard","Blackberries, Strawberries",,,,
Airport U-Pick,6881 East NC Hwy 97,Elm City,NC,,"6881 East NC Hwy 97, Elm City, North Carolina 27822","U-Pick Farm, Orchard",Strawberries,,,,
Alary Farm,6322 Corrales Road,Corrales,NM,,"6322 Corrales Road, Corrales, New Mexico 87048","U-Pick Farm, Orchard",Apples,,,,
Alewive’s Brook Farm,83 Old Ocean House Rd,Cape Elizabeth,ME,,"83 Old Ocean House Rd, Cape Elizabeth, Maine 04107","U-Pick Farm, Orchard","Pumpkins, Strawberries",,,,
All Seasons Orchard,14510 IL Route 176,Woodstock,,,"14510 IL Route 176, Woodstock, 1011 60098","U-Pick Farm, Orchard","Apples, Pumpkins",,,,
Alldredge Orchards,10455 N Highway,Platte City,MO,,"10455 N Highway, Platte City, Missouri 64079","U-Pick Farm, Orchard",Apples,,,,
Allison Family Farm LLC,124 Diamond Lake Lane,Crescent City,FL,32112,"124 Diamond Lake Lane, Crescent City, FL 32112","U-Pick Farm, Orchard","Figs, Grapes, Muscadines, Peaches, Pears, Persimmons",,,,
Alstede Farms,1 Alstede Farms Lane,Chester,,,"1 Alstede Farms Lane, Chester, 1028 07930","U-Pick Farm, Orchard","Apples, Blackberries, Blueberries, Peaches, Raspberries",,,,
Altenburg’s Farm,7020 Plover Road Hwy 54E,Wisconsin Rapids,WI,,"7020 Plover Road Hwy 54E, Wisconsin Rapids, Wisconsin 54494","U-Pick Farm, Orchard","Pumpkins, Strawberries",,,,
Ambers U-Pick Cherry Farm,9300 Leona Ave,Leona Valley,CA,,"9300 Leona Ave, Leona Valley, California 93551","U-Pick Farm, Orchard",Cherries,,,,
Andelin Family Farm,,,,,,"U-Pick Farm, Orchard",Pumpkins,,,,
Anderson Orchard,369 E. Greencastle Road,Mooresville,IN,,"369 E. Greencastle Road, Mooresville, Indiana 46158","U-Pick Farm, Orchard","Apples, Blueberries, Chestnuts, Plums, Pumpkins, Raspberries",,,,
Anderson Orchards,225 1st St NE,Rudyard,MT,,"225 1st St NE, Rudyard, Montana 59540","U-Pick Farm, Orchard",Apples,,,,
Angelic Gardens,6200 11th Ave SE,Minot,ND,,"6200 11th Ave SE, Minot, North Dakota 58701","U-Pick Farm, Orchard","Apples, Pumpkins",,,,
Ann’s Greenhouse,780-Sheep Creek Road,Fairbanks,AK,,"780-Sheep Creek Road, Fairbanks, Alaska 99709","U-Pick Farm, Orchard","Raspberries, Strawberries, Vegetables",,,,
Anthea’s Gardens,6438 Fenton Rd.,Flint,MI,48507,"6438 Fenton Rd., Flint, MI 48507","Christmas TreesCorn MazeFarm MarketHoney BeesPetting ZooPicnic AreaSchool Field TripsU-Pick Farm, OrchardWedding VenueWinery",Squash,,,,
Apple Annie’s Orchard,2081 W Hardy Rd,Willcox,AZ,,"2081 W Hardy Rd, Willcox, Arizona 85643","U-Pick Farm, Orchard","Apples, Peaches, Pears",,,,
Apple Barn & Country Bake Shop,604 US Rt 7S,Bennington,VT,,"604 US Rt 7S, Bennington, Vermont 05201","U-Pick Farm, Orchard","Blackberries, Blueberries, Raspberries, Strawberries",,,,
Apple Blossom Orchard,2581 Wilder Rd.,Midland,MI,,"2581 Wilder Rd., Midland, Michigan 48642",Pre-Picked Only,Ready Picked Only,,,,
Apple Creek Orchards,5367 Barr Road,Ferdale,WA,,"5367 Barr Road, Ferdale, Washington 98248","U-Pick Farm, Orchard",Apples,,,,
Apple Hill Orchard,2075 Pleasant Hill Avenue,Morganton,NC,,"2075 Pleasant Hill Avenue, Morganton, North Carolina 28655","U-Pick Farm, Orchard",Apples,,,,
Apple Hill Orchard,2952 Carson Rd,Placerville,CA,,"2952 Carson Rd, Placerville, California 95667","U-Pick Farm, Orchard",Apples,,,,
Apple Holler,5006 S Sylvania Ave,Sturtevant,WI,,"5006 S Sylvania Ave, Sturtevant, Wisconsin 53177","U-Pick Farm, Orchard","Apples, Peaches, Pears, Pumpkins",,,,
Apple Jack Orchards,4875 37th St SE,Delano,MN,,"4875 37th St SE, Delano, Minnesota 55328","U-Pick Farm, Orchard","Apples, Raspberries",,,,
Apple Starr Orchard,1020 Julian Orchard Drive,Julian,CA,,"1020 Julian Orchard Drive, Julian, California 92036","U-Pick Farm, Orchard","Apples, Pears",,,,
Apple Valley Orchard,1670 Mar-El Road,De Pere,WI,,"1670 Mar-El Road, De Pere, Wisconsin 54115","U-Pick Farm, Orchard",Apples,,,,
Apple Valley Orchard,6480 Davis Rd.,Saginaw,MI,,"6480 Davis Rd., Saginaw, Michigan 48604",Pre-Picked Only,Ready Picked Only,,,,
Appleberry Farm,8079 Maurer Road,Cross Plains,WI,,"8079 Maurer Road, Cross Plains, Wisconsin 53528","U-Pick Farm, Orchard","Apples, Raspberries, Strawberries",,,,
Applecrest Farm Orchards,133 Exeter Rd,Hampton Falls,NH,03844,"133 Exeter Rd, Hampton Falls, NH 03844","U-Pick Farm, Orchard",Raspberries,,,,
Appleland Orchard,135 Smith Ave,Greenville,RI,,"135 Smith Ave, Greenville, Rhode Island 02828","U-Pick Farm, Orchard","Apples, Peaches",,,,
Applewood Orchard,22702 Hamburg Ave,Lakeville,MN,,"22702 Hamburg Ave, Lakeville, Minnesota 55044","U-Pick Farm, Orchard","Apples, Pumpkins, Raspberries",,,,
Arnold’s Strawberries,,,,,,"U-Pick Farm, Orchard",Strawberries,,,,
Ashland Produce,,,,,,"U-Pick Farm, Orchard","Green Beans, Peas",,,,
Aufdenkampe Family Farm,3275 N Ridge Road,Vermilion,OH,,"3275 N Ridge Road, Vermilion, Ohio 44089","U-Pick Farm, Orchard",Strawberries,,,,
Augusta Blueberries,27020 E Branch Road,Fairfield,WI,,"27020 E Branch Road, Fairfield, Wisconsin 54741","U-Pick Farm, Orchard",Blueberries,,,,
Aunt Zelma’s Blueberries,,,,,,"U-Pick Farm, Orchard",Blueberries,,,,
Averill Farm,250 Calhoun St,Washington Depot,CT,06794,"250 Calhoun St, Washington Depot, CT 06794","U-Pick Farm, Orchard","Apples, Pears",,,,
B.J. Reece Orchards,9131 Highway 52,East Ellijay,GA,,"9131 Highway 52, East Ellijay, Georgia 30536","U-Pick Farm, Orchard",Apples,,,,
Babb Blueberry Farm,2751 Highway 50,Beaufort,MO,,"2751 Highway 50, Beaufort, Missouri 63013","U-Pick Farm, Orchard",Blueberries,,,,
Baldwin Blueberries,27608 County Rd 65,Loxley,AL,36551,"27608 County Rd 65, Loxley, AL 36551","U-Pick Farm, Orchard",Blueberries,,,,
Barefoot Farms of Belton,293 Murphy Road,Belton,SC,,"293 Murphy Road, Belton, South Carolina 29627","U-Pick Farm, Orchard","Blackberries, Herbs, Vegetables",,,,
Barnes Sweet Cherries,,,,,,"U-Pick Farm, Orchard",Cherries,,,,
Barrett Orchards,1209 Pecks Canyon Rd,Yakima,WA,,"1209 Pecks Canyon Rd, Yakima, Washington 98908","U-Pick Farm, Orchard","Apples, Cherries",,,,
Barthel Fruit Farm,12246 N Farmdale Road,Mequon,WI,,"12246 N Farmdale Road, Mequon, Wisconsin 53097","U-Pick Farm, Orchard","Apples, Pumpkins, Strawberries",,,,
Basse’s Taste of Country Farm,,,,,,"U-Pick Farm, Orchard","Apples, Raspberries, Strawberries",,,,
Battleview Orchards,91 Wemrock Rd,Freehold,NJ,,"91 Wemrock Rd, Freehold, New Jersey 07728","U-Pick Farm, Orchard","Apples, Cherries, Nectarines, Peaches, Pumpkins, Strawberries",,,,
Baugher’s,1015 Baugher Road,Westminster,MD,,"1015 Baugher Road, Westminster, Maryland 21158","U-Pick Farm, Orchard","Apples, Cherries, Nectarines, Peaches, Pumpkins, Strawberries",,,,
Beal Orchard & Country Store,131 NE 100 Rd,Haper,KS,,"131 NE 100 Rd, Haper, Kansas 67058","U-Pick Farm, Orchard",Peaches,,,,
Bear Mountain Blueberry Farm,8245 Clayton Road,Springville,AL,35146,"8245 Clayton Road, Springville, AL 35146","U-Pick Farm, Orchard",Blueberries,,,,
Beck Brothers Blueberries You-Pick,12500 Overstreet Rd,Windermere,FL,34786,"12500 Overstreet Rd, Windermere, FL 34786","U-Pick Farm, Orchard",Blueberries,,,,
Beck’s Farm,7620 S. Anderson Rd.,Newton,KS,,"7620 S. Anderson Rd., Newton, Kansas 67114","U-Pick Farm, Orchard",Peaches,,,,
Bee Healthy Produce,47842 271st ST,Harrisburg,SD,57032,"47842 271st ST, Harrisburg, SD 57032","Farm MarketHoney BeesU-Pick Farm, Orchard",Squash,,,,
Beechwood Farms,204 Bates Bridge Rd,Marietta,SC,,"204 Bates Bridge Rd, Marietta, South Carolina 29683","U-Pick Farm, Orchard","Strawberries, Vegetables",,,,
Bell’s Orchard,24350 SW Farmington Rd,Beaverton,OR,97007,"24350 SW Farmington Rd, Beaverton, OR 97007","Honey BeesU-Pick Farm, Orchard","Apples, Peaches, Pears",,,,
Bella Vista Berry Farm,2685 Billy's Road,Minden,NV,,"2685 Billy's Road, Minden, Nevada 89423","U-Pick Farm, Orchard","Blackberries, Raspberries",,,,
Bellevue Berry & Pumpkin Ranch,11001 S. 48th St.,Papillion,NE,,"11001 S. 48th St., Papillion, Nebraska 68133","U-Pick Farm, Orchard","Black Raspberries, Pumpkins, Raspberries, Red Raspberries, Strawberries",,,,
Bellewood Acres,,,,,,"U-Pick Farm, Orchard",Apples,,,,
Bennett Orchard,31442 Peach Tree Lane,Frankford,DE,,"31442 Peach Tree Lane, Frankford, Delaware 19945","U-Pick Farm, Orchard","Blueberries, Peaches",,,,
Berruti’s Harvest House,1098 Main Street,South Glastonbury,CT,,"1098 Main Street, South Glastonbury, Connecticut 06033","U-Pick Farm, Orchard",Apples,,,,
Berry Best Farm,26011 Hwy 62,Nabb,IN,,"26011 Hwy 62, Nabb, Indiana 47147","U-Pick Farm, Orchard",Peas,,,,
Berry Creek Farm,1021 S. Tyler Ave,Blanchard,OK,,"1021 S. Tyler Ave, Blanchard, Oklahoma 73010","U-Pick Farm, Orchard","Grapes, Peaches, Strawberries",,,,
Berry Fresh Farms,30339 K Avenue,Adel,IA,,"30339 K Avenue, Adel, Iowa 50003","U-Pick Farm, Orchard","Blackberries, Cherries, Peaches, Raspberries, Strawberries",,,,
Berry Good Farm,7637 Lancaster Pike,Hockessin,,,"7637 Lancaster Pike, Hockessin, 1006 19707","U-Pick Farm, Orchard",Blackberries,,,,
Berry Good Farms,930 William Gibbs Rd,Tifton,GA,31793,"930 William Gibbs Rd, Tifton, GA 31793","U-Pick Farm, Orchard","Apples, Asparagus, Blackberries, Blueberries, Citrus, Corn, Muscadines, Oranges, Peaches, Pecans, Peppers, Persimmons, Plums, Potatoes, Strawberries, Tomatoes",,,,
Berry Harvest Farm,12766 White Cemetery Rd,Cato,NY,13033,"12766 White Cemetery Rd, Cato, NY 13033","U-Pick Farm, Orchard","Blueberries, Grapes, Pumpkins, Strawberries",,,,
Berry Hill Farm,6510 185th Ave NW,Anoka,MN,,"6510 185th Ave NW, Anoka, Minnesota 55303","U-Pick Farm, Orchard",Strawberries,,,,
Berry Patch,420 Sams Creek Rd,Gold Hill,OR,,"420 Sams Creek Rd, Gold Hill, Oregon 97525","U-Pick Farm, Orchard","Blueberries, Raspberries",,,,
Berry Patch,22509 State Line Road,Cleveland,MO,,"22509 State Line Road, Cleveland, Missouri 64734","U-Pick Farm, Orchard","Blackberries, Blueberries",,,,
Berry Patch Farm,62785 280th Street,Nevada,IA,,"62785 280th Street, Nevada, Iowa 50201","U-Pick Farm, Orchard","Apples, Blueberries, Currants, Gooseberries, Pumpkins, Raspberries, Strawberries",,,,
Berry Patch Farms,786 Arnold Mill Road,Woodstock,GA,,"786 Arnold Mill Road, Woodstock, Georgia 30188","U-Pick Farm, Orchard","Blueberries, Pumpkins",,,,
"Berry Patch Farms, LLC",13785 Potomac St.,Brighton,CO,80601,"13785 Potomac St., Brighton, CO 80601","U-Pick Farm, Orchard","Currants, Flowers, Herbs, Raspberries, Strawberries",,,,
Berry Ranch,7998 Highway 20/26,Nampa,ID,,"7998 Highway 20/26, Nampa, Idaho 83687","U-Pick Farm, Orchard","Blackberries, Pumpkins, Raspberries, Strawberries",,,,
Berry Sweet Orchards,5110 Brown Road,Ethel,LA,,"5110 Brown Road, Ethel, Louisiana 70730","U-Pick Farm, Orchard",Blueberries,,,,
Berryfield Farm Blueberries,6424 Township Road 199,Centerburg,OH,,"6424 Township Road 199, Centerburg, Ohio 43011","U-Pick Farm, Orchard","Blackberries, Blueberries",,,,
Berryland Farms of Texas,2877 FM 1941 Rd.,Winnie,TX,,"2877 FM 1941 Rd., Winnie, Texas 77665","U-Pick Farm, Orchard","Blackberries, Blueberries, Tomatoes, Vegetables",,,,
Berryville Farm,424 13th Avenue,Racine,WI,,"424 13th Avenue, Racine, Wisconsin 53403","U-Pick Farm, Orchard",Strawberries,,,,
Betty’s Berry Farm,3887 Driskell Loop Rd,Wilmer,AL,,"3887 Driskell Loop Rd, Wilmer, Alabama 36587","U-Pick Farm, Orchard",Blueberries,,,,
Big B’s Delicious Orchards,39126 Highway 133,Hotchkiss,CO,,"39126 Highway 133, Hotchkiss, Colorado 81419","U-Pick Farm, Orchard",Apples,,,,
Big Dan’s U-Pick’em,65980 66th Ave,Harford,MI,,"65980 66th Ave, Harford, Michigan 49057","U-Pick Farm, Orchard","Apples, Peaches, Pumpkins",,,,
Big John’s Cherries,9258 Leona Ave.,Leona Valley,CA,,"9258 Leona Ave., Leona Valley, California 93551","U-Pick Farm, Orchard",Cherries,,,,
Billy Boy’s Blueberry Barn,650 Freyer Road,Michigan City,IN,,"650 Freyer Road, Michigan City, Indiana 46360","U-Pick Farm, Orchard",Blueberries,,,,
Birch Creek Ranch,29430 S Mastodon Rd,Talkeetna,AK,,"29430 S Mastodon Rd, Talkeetna, Alaska 99676","U-Pick Farm, Orchard","Currants, Raspberries, Strawberries",,,,
Biringer Farm,21412 59th Ave NE,Arlington,WA,,"21412 59th Ave NE, Arlington, Washington 98223","U-Pick Farm, Orchard","Blackberries, Raspberries, Strawberries",,,,
Bishop’s Orchards,1355 Boston Post Road,Guilford,CT,,"1355 Boston Post Road, Guilford, Connecticut 06437","U-Pick Farm, Orchard","Apples, Blueberries, Peaches, Pears, Pumpkins, Raspberries, Strawberries",,,,
Blackberry Heaven,1870 SW Santa Fe Lake Rd,Towanda,KS,,"1870 SW Santa Fe Lake Rd, Towanda, Kansas 67144","U-Pick Farm, Orchard","Blackberries, Blueberries",,,,
Blaser’s Acres,2556 School Lane,Suamico,WI,,"2556 School Lane, Suamico, Wisconsin 54313","U-Pick Farm, Orchard",Strawberries,,,,
Blok Orchard,6365 4 Mile Rd NE,Ada,MI,,"6365 4 Mile Rd NE, Ada, Michigan 49301",,"Blueberries, Cherries, Raspberries",,,4 miles,
Blu By U Blueberry Farm,5571 Long Branch Road,Jacksonville,FL,32234,"5571 Long Branch Road, Jacksonville, FL 32234","Petting ZooPicnic AreaU-Pick Farm, OrchardWedding Venue","Blueberries, Strawberries",,,,
Blue Acres Berries,7772 Howell Road,Sneads,FL,32460,"7772 Howell Road, Sneads, FL 32460","U-Pick Farm, Orchard",Blueberries,,,,
Blue Bayou Farms,,,,,,"U-Pick Farm, Orchard","Blackberries, Blueberries",,,,
Blue Dog Farm,7025 W. Snoqualmie Valley Rd,Carnation,WA,,"7025 W. Snoqualmie Valley Rd, Carnation, Washington 98014","U-Pick Farm, Orchard",Blueberries,,,,
Blue Harvest Farms,78495 Hwy 21,Bush,LA,,"78495 Hwy 21, Bush, Louisiana 70431","U-Pick Farm, Orchard",Blueberries,,,,
Blue Heaven Blueberry Farm,4810 Wildwood Lane,Springdale,AR,,"4810 Wildwood Lane, Springdale, Arkansas 72762","U-Pick Farm, Orchard",Blueberries,,,,
Blue Hills Orchard,141 Blue Hills Road,Wallingford,CT,06492,"141 Blue Hills Road, Wallingford, CT 06492","Farm MarketSchool Field TripsU-Pick Farm, Orchard",Apples,,,,
Blue Jay Orchard,17909 Rapids Rd,Hiram,OH,44234,"17909 Rapids Rd, Hiram, OH 44234","Farm MarketHoney BeesPicnic AreaSchool Field TripsU-Pick Farm, Orchard","Apples, Blueberries",,,,
Blue Shepherd Farm,3601 N Route J,Rocheport,MO,65279,"3601 N Route J, Rocheport, MO 65279","U-Pick Farm, Orchard",Blueberries,,,,
Blue Sky Farm,1180 Ashville Highway,Monticello,FL,32344,"1180 Ashville Highway, Monticello , FL 32344","U-Pick Farm, Orchard",Blueberries,,,,
Blue Tara,257 Langnecker Rd,Poplarville,MS,,"257 Langnecker Rd, Poplarville, Mississippi 39470","U-Pick Farm, Orchard",Blueberries,,,,
Blue Vista Farm,,,,,,"U-Pick Farm, Orchard",Blueberries,,,,
Blue Willow Farm,336 J Cross Road,Toney,AL,,"336 J Cross Road, Toney, Alabama 35773","U-Pick Farm, Orchard",Blueberries,,,,
BlueBela Farm,7650 NE 40th St,High Springs,FL,,"7650 NE 40th St, High Springs, Florida 32643","U-Pick Farm, Orchard",Blueberries,,,,
Blueberries of Daviess County,1401 Hill Bridge Rd,Utica,KY,,"1401 Hill Bridge Rd, Utica, Kentucky 42376","U-Pick Farm, Orchard",Blueberries,,,,
Blueberry Garden’s,5475 Crow Road,Cumming,GA,30041,"5475 Crow Road, Cumming, GA 30041","U-Pick Farm, Orchard",Blueberries,,,,
Blueberry Haven,9967 Cty Rd. XX,Bear Creek,WI,,"9967 Cty Rd. XX, Bear Creek, Wisconsin 54922","U-Pick Farm, Orchard",Blueberries,,,,
Blueberry Haven LLC,9967 Cty Rd XX,Bear Creek,WI,54922,"9967 Cty Rd XX, Bear Creek, WI 54922",,Blueberries,,,,
Blueberry Hill Farm,231 Blueberry Hill Farm Road,Action,ME,,"231 Blueberry Hill Farm Road, Action, Maine 04001","U-Pick Farm, Orchard",Blueberries,,,,
Blueberry Hill Farm,5000 Berry Groves Road,Clermont,FL,,"5000 Berry Groves Road, Clermont, Florida 34714","U-Pick Farm, Orchard",Blueberries,,,,
Blueberry Hill Farms & Nursery,6884 Roberts Rd,Clinton,NY,13323,"6884 Roberts Rd, Clinton, NY 13323","U-Pick Farm, Orchard",Blueberries,,,,
"Blueberry Hill U-Pick, LLC",3122 White Hill Road,Sanford,NC,27330,"3122 White Hill Road, Sanford, NC 27330","U-Pick Farm, Orchard",Blueberries,,,,
Blueberry Patch,1285 W. Hanley Rd,Mansfield,OH,,"1285 W. Hanley Rd, Mansfield, Ohio 44904","U-Pick Farm, Orchard",Blueberries,,,,
Blueberry Patch,986 Crosstie Rd,Seymour,MO,,"986 Crosstie Rd, Seymour, Missouri 65746","U-Pick Farm, Orchard",Blueberries,,,,
Blueberry Patch,,,,,,"U-Pick Farm, Orchard",Blueberries,,,,
Blueberry Ranch,54743 Buckeye Road,Mishawaka,IN,,"54743 Buckeye Road, Mishawaka, Indiana 46545","U-Pick Farm, Orchard",Blueberries,,,,
Blueberry Ridge Orchard,2795 Hageness Road,Eleva,WI,54738,"2795 Hageness Road, Eleva, WI 54738","U-Pick Farm, Orchard",Blueberries,,,,
Blueberry Springs,383 Wacissa Springs Road,Wacissa,FL,32361,"383 Wacissa Springs Road, Wacissa, FL 32361","U-Pick Farm, Orchard","Blackberries, Blueberries",,,,
Bluewater Orchard,508 Bridger Fromberg Road,Fromberg,MT,,"508 Bridger Fromberg Road, Fromberg, Montana 59029","U-Pick Farm, Orchard",Apples,,,,
Bob's Blueberry Farm,14000 Edwards Rd,Hudson,FL,34669,"14000 Edwards Rd, Hudson, FL 34669","U-Pick Farm, Orchard",Blueberries,,,,
Bob’s Berries,11501 Winn Road,Riverview,FL,33569,"11501 Winn Road, Riverview, FL 33569","U-Pick Farm, Orchard","Blackberries, Blueberries, Boysenberries, Leafy Greens, Peppers, Strawberries",,,,
Bobrook Farms,13810 Combee Lane,Roland,AR,,"13810 Combee Lane, Roland, Arkansas 72135","U-Pick Farm, Orchard","Blackberries, Blueberries, Pumpkins",,,,
Boja Farm,157 Herginrider Rd,Bridger,MT,,"157 Herginrider Rd, Bridger, Montana 59014","U-Pick Farm, Orchard",Apples,,,,
Bonny Slope Blueberries,3565 NW South Rd,Portland,OR,,"3565 NW South Rd, Portland, Oregon 97229","U-Pick Farm, Orchard",Blueberries,,,,
Boughton Farm,2256 Boughton Dr.,Akron,OH,,"2256 Boughton Dr., Akron, Ohio 44320","U-Pick Farm, Orchard","Strawberries, Vegetables",,,,
Bow Hill Blueberries,15628 Bow Hill Road,Bow,,,"15628 Bow Hill Road, Bow, 1045 98232","U-Pick Farm, Orchard",Blueberries,,,,
Bowerman Blueberry,15793 James Street,Holland,MI,,"15793 James Street, Holland, Michigan 49424","U-Pick Farm, Orchard",Blueberries,,,,
Bowman Orchards,,,,,,"U-Pick Farm, Orchard","Apples, Blackberries, Blueberries, Cherries, Raspberries, Strawberries",,,,
Boyd Family Farm,125 East Dover Road,Wilmington,VT,,"125 East Dover Road, Wilmington, Vermont 05363","U-Pick Farm, Orchard","Blueberries, Raspberries",,,,
Brad’s Blueberries,3108 Old Hwy. 421 E.,Yadkinville,NC,27005,"3108 Old Hwy. 421 E., Yadkinville, NC 27005","U-Pick Farm, Orchard","Blueberries, Muscadines",,,,
Brad’s Organic Blueberries,7450 NE 135th Street,Bronson,FL,32621,"7450 NE 135th Street, Bronson, FL 32621","U-Pick Farm, Orchard",Blueberries,,,,
Brad’s Produce,550 Asbury Road,Churchville,MD,,"550 Asbury Road, Churchville, Maryland 21028","U-Pick Farm, Orchard",Strawberries,,,,
Bradbury Family Farms,14014 N 172 Ave,Surprise,AZ,,"14014 N 172 Ave, Surprise, Arizona 85388","U-Pick Farm, Orchard",Citrus,,,,
Braeutigam Orchards,,,,,,"U-Pick Farm, Orchard","Apples, Blackberries, Peaches",,,,
Bramble Creek Farms,23031 Hayman Road,Brooksville,FL,34602,"23031 Hayman Road, Brooksville, FL 34602","Picnic AreaU-Pick Farm, Orchard",Blackberries,,,,
Brandywine Farm,13370 County Road 7160,Rolla,MO,,"13370 County Road 7160, Rolla, Missouri 65401","U-Pick Farm, Orchard",Blueberries,,,,
Branstool Orchards,5895 Johnstown Utica Rd NE,Utica,OH,,"5895 Johnstown Utica Rd NE, Utica, Ohio 43080","U-Pick Farm, Orchard","Apples, Peaches",,,,
Brehmer’s U-Pick Strawberries,5805 Clover Road,Hartford,WI,,"5805 Clover Road, Hartford, Wisconsin 53027","U-Pick Farm, Orchard","Pumpkins, Strawberries",,,,
Brenda’s Berries & Orchards,10331 SW 95th St,Chetopa,KS,,"10331 SW 95th St, Chetopa, Kansas 67336","U-Pick Farm, Orchard",Raspberries,,,,
Brick House Acres – Garden Center & Berry Farm,10628 Roberts Rd,Frankfort,NY,13340,"10628 Roberts Rd, Frankfort, NY 13340","U-Pick Farm, Orchard","Blackberries, Blueberries, Flowers, Raspberries",,,,
Brittingham’s Produce,16001 Harbeson Rd,Milton,DE,,"16001 Harbeson Rd, Milton, Delaware 19968","U-Pick Farm, Orchard","Collard, Kale, Turnip Greens",,,,
Brookford Farm,250 West Road,Canterbury,NH,03224,"250 West Road, Canterbury, NH 03224","Corn MazeCSA/Co-opFestivalPicnic AreaSchool Field TripsU-Pick Farm, Orchard",Raspberries,,,,
Brooksby Farm,54 Felton St,Peabody,MA,,"54 Felton St, Peabody, Massachusetts 01960","U-Pick Farm, Orchard","Apples, Blueberries, Peaches, Raspberries, Strawberries",,,,
Brookside Farms,37988 Co Rd 388,Gobles,MI,,"37988 Co Rd 388, Gobles, Michigan 49055","U-Pick Farm, Orchard",Blueberries,,,,
Brooksville Ridge Blueberries,2050 Batten Road,Brooksville,FL,33548,"2050 Batten Road, Brooksville, FL 33548","U-Pick Farm, Orchard",Blueberries,,,,
Brossman’s Farm,14740 James Monroe Hwy,Leesburg,VA,,"14740 James Monroe Hwy, Leesburg, Virginia 20176","U-Pick Farm, Orchard","Pumpkins, Strawberries",,,,
Brown’s Orchards & Farm Market,8773 Yellow Church Rd,Seven Valleys,PA,17360,"8773 Yellow Church Rd, Seven Valleys, PA 17360","U-Pick Farm, Orchard","Apples, Black Raspberries, Blueberries, Cherries, Peaches, Pumpkins, Raspberries, Red Raspberries, Sour Cherries, Strawberries",,,,
Brownlee Farms,314 Skating Rink Road,Red Banks,MS,,"314 Skating Rink Road, Red Banks, Mississippi 38661","U-Pick Farm, Orchard","Pumpkins, Strawberries",,,,
Bryant Blueberry Farm,5628 Grandview Road,Arlington,WA,,"5628 Grandview Road, Arlington, Washington 98223","U-Pick Farm, Orchard",Blueberries,,,,
Bryant’s Blueberries,6900 Oak Park Rd NE,New Salisbury,,,"6900 Oak Park Rd NE, New Salisbury, 1012 47161","U-Pick Farm, Orchard",Blueberries,,,,
Buckeye Acres,91 NE 600th Rd,Warrensburg,MO,,"91 NE 600th Rd, Warrensburg, Missouri 64093","U-Pick Farm, Orchard","Blackberries, Strawberries",,,,
Buckley U-Pick Cherries,2950 Leavesley Rd,Gilroy,CA,,"2950 Leavesley Rd, Gilroy, California 95020","U-Pick Farm, Orchard",Cherries,,,,
Buffalo Creek Berry Farm LLC,9211 Sloan Rd,Mustang,OK,73064,"9211 Sloan Rd, Mustang, OK 73064","U-Pick Farm, Orchard","Beans, Blackberries, Carrots, Cucumbers, Garlic, Green Beans, Melons, Peas, Plums, Potatoes, Raspberries, Squash, Strawberries, Tomatoes, Vegetables",,,,
Burkhart’s Blueberries,780 Poor House Rd,Martinsburg,VA,,"780 Poor House Rd, Martinsburg, West Virginia 25403","U-Pick Farm, Orchard",Blueberries,,,,
Burr Oak Farm,1121 220th Street,Winterset,IA,,"1121 220th Street, Winterset, Iowa 50273","U-Pick Farm, Orchard","Apples, Apricots, Blackberries, Cherries, Grapes, Nectarines, Peaches, Pears, Plums",,,,
Burr’s Berry Farm,12741 SW 216th St,Miami,FL,,"12741 SW 216th St, Miami, Florida 33170","U-Pick Farm, Orchard",Strawberries,,,,
Burris Farms U-Pick,8920 Highway 4 West,Senatobia,MS,,"8920 Highway 4 West, Senatobia, Mississippi 38668","U-Pick Farm, Orchard","Blackberries, Blueberries, Muscadines",,,,
Butler’s Orchard,22222 Davis Mill Rd,Germantown,MD,20876,"22222 Davis Mill Rd, Germantown, MD 20876","U-Pick Farm, Orchard","Apples, Black Raspberries, Blackberries, Blueberries, Flowers, Peas, Potatoes, Pumpkins, Raspberries, Red Raspberries, Sour Cherries, Strawberries, Sugar Snap Peas, Tomatoes",,,,
Byrnside Branch Farm,170 Byrnside Branch Road,Union,VA,,"170 Byrnside Branch Road, Union, West Virginia 24983","U-Pick Farm, Orchard",Pumpkins,,,,
C.N. Smith Farm,325 South St.,East Bridgewater,MA,,"325 South St., East Bridgewater, Massachusetts 02333","U-Pick Farm, Orchard","Apples, Blueberries, Peaches, Pumpkins, Strawberries",,,,
Cabalo’s Orchard,2087 W. King Rd,Kuna,ID,,"2087 W. King Rd, Kuna, Idaho 83634","U-Pick Farm, Orchard","Apples, Blackberries, Pumpkins",,,,
Cabot Patch,500 Mt. Carmel Road,Cabot,AR,,"500 Mt. Carmel Road, Cabot, Arkansas 72023","U-Pick Farm, Orchard","Peaches, Strawberries, Tomatoes",,,,
Cadwallader Mountain Farms & Orchard,13 Mountain Park Rd,Mountain Park,NM,,"13 Mountain Park Rd, Mountain Park, New Mexico 88325","U-Pick Farm, Orchard",Apples,,,,
Camelot Farms,15911 Black Bridge Rd,Paonia,CO,,"15911 Black Bridge Rd, Paonia, Colorado 81428","U-Pick Farm, Orchard",Apples,,,,
Canyon Berry Farms,20126 S Dickerson Dr,,OK,,"20126 S Dickerson Dr, , Oklahoma 74017","U-Pick Farm, Orchard",Blueberries,,,,
Carandale Fruit Farm,1046 Tipperary Road,Oregon,OR,,"1046 Tipperary Road, Oregon, Wisconsin 53575","U-Pick Farm, Orchard",Strawberries,,,,
Carleton Farms,630 Sunnyside Blvd SE,Lake Stevens,WA,,"630 Sunnyside Blvd SE, Lake Stevens, Washington 98258","U-Pick Farm, Orchard",Pumpkins,,,,
Carlsbad Strawberry Company,1050 Cannon Dr,Carlsbad,CA,,"1050 Cannon Dr, Carlsbad, California 92008","U-Pick Farm, Orchard",Strawberries,,,,
Carlson Orchards,115 Oak Hill Road,Harvard,MA,,"115 Oak Hill Road, Harvard, Massachusetts 01451","U-Pick Farm, Orchard","Apples, Blueberries, Nectarines, Peaches, Pumpkins, Raspberries",,,,
Carter’s Blueberry Farm,,,,,,"U-Pick Farm, Orchard",Blueberries,,,,
Castle Hill Farm,25 Sugar Ln,Newtown,CT,,"25 Sugar Ln, Newtown, Connecticut 06470","U-Pick Farm, Orchard","Pumpkins, Squash",,,,
Cedar Grove Blueberry Farm,105 Persimmon Hill Lane,Cedar Grove,NC,27231,"105 Persimmon Hill Lane, Cedar Grove, NC 27231","U-Pick Farm, Orchard",Blueberries,,,,
Cedar Haven Blackberries,8 Earthhaven Dr,Waddy,KY,,"8 Earthhaven Dr, Waddy, Kentucky 40076","U-Pick Farm, Orchard",Blackberries,,,,
Centennial Farms,199 Century Farm Lane,Augusta,MO,,"199 Century Farm Lane, Augusta, Missouri 63332","U-Pick Farm, Orchard","Apples, Blackberries, Peaches, Pumpkins",,,,
Center Grove Orchard,32835 610th Ave,Cambridge,IA,,"32835 610th Ave, Cambridge, Iowa 50046","U-Pick Farm, Orchard",Apples,,,,
Charlie’s U-Pik,257 Charlie's Lane,Lucedale,MS,,"257 Charlie's Lane, Lucedale, Mississippi 39452","U-Pick Farm, Orchard",Vegetables,,,,
Charlotte Berry Farm,4702 Ethan Allen Hwy (Rt 7),Charlotte,VT,,"4702 Ethan Allen Hwy (Rt 7), Charlotte, Vermont 05445","U-Pick Farm, Orchard","Blueberries, Pumpkins, Raspberries, Strawberries",,,,
Chautauqua Hills Farm,,,,,,"U-Pick Farm, Orchard","Blackberries, Blueberries",,,,
Chavez U-Pick Cherries,23800 Marsh Creek Rd,Brentwood,CA,,"23800 Marsh Creek Rd, Brentwood, California 94513","U-Pick Farm, Orchard",Cherries,,,,
Cherry Lane Orchards,7525 Cherry Lane,Sturgeon Bay,WI,,"7525 Cherry Lane, Sturgeon Bay, Wisconsin 54235","U-Pick Farm, Orchard",Cherries,,,,
Cherrywood Farm,,,,,,"U-Pick Farm, Orchard","Blackberries, Blueberries, Strawberries",,,,
Chestnut Charlie’s,1840 E 1450 Rd,Lawrence,KS,,"1840 E 1450 Rd, Lawrence, Kansas 66044","U-Pick Farm, Orchard",Chestnuts,,,,
Chet’s Blueberry Farm,525 County J North,Stevens Point,WI,,"525 County J North, Stevens Point, Wisconsin 54482","U-Pick Farm, Orchard",Blueberries,,,,
Chmielewski’s Blueberry Farm,23810 Bauer Hockly Rd,Hockley,TX,,"23810 Bauer Hockly Rd, Hockley, Texas 77447","U-Pick Farm, Orchard",Blueberries,,,,
Choice Orchards,,,,,,"U-Pick Farm, Orchard","Apples, Cherries",,,,
Cider Hill Family Orchard,3341 N 139th Street,Kansas City,KS,,"3341 N 139th Street, Kansas City, Kansas 66109","U-Pick Farm, Orchard","Apples, Pumpkins",,,,
Cider Hill Farm,45 Fern Ave,Amesbury,MA,01913,"45 Fern Ave, Amesbury, MA 01913","BakeryChristmas TreesCSA/Co-opFarm MarketFestivalHoney BeesPicnic AreaU-Pick Farm, OrchardWinery","Apples, Blueberries, Peaches, Pumpkins, Raspberries, Red Raspberries, Strawberries",,,,
Clair’s Cultivation,1364 Esro Road,Fairbanks,AK,,"1364 Esro Road, Fairbanks, Alaska 99712","U-Pick Farm, Orchard","Apples, Plums",,,,
Clam Lake Orchards,6456 Clam Lake Rd.,Bellaire,MI,,"6456 Clam Lake Rd., Bellaire, Michigan 49615","U-Pick Farm, Orchard","Apples, Strawberries",,,,
Clineland Strawberries,2784-4 Clineland Rd,Cherryville,NC,,"2784-4 Clineland Rd, Cherryville, North Carolina 28021","U-Pick Farm, Orchard",Strawberries,,,,
Clover Nook Farm,50 Fairwood Rd,Bethany,CT,,"50 Fairwood Rd, Bethany, Connecticut 06524","U-Pick Farm, Orchard",Pumpkins,,,,
Cloverfield Organic Farm,501 La Paloma Rd.,El Sobrante,CA,94803,"501 La Paloma Rd., El Sobrante, CA 94803","U-Pick Farm, Orchard","Apples, Beans, Beets, Blackberries, Broccoli, Carrots, Cherries, Citrus, Collard, Cucumbers, Figs, Flowers, Garlic, Grapes, Green Beans, Herbs, Horseraddish, Kale, Lavender, Leafy Greens, Lemons, Limes, Nectarines, Peaches, Pears, Peas, Peppers, Persimmons, Plums, Potatoes, Pumpkins, Rhubarb, Satsumas, Squash, Strawberries, Sugar Snap Peas, Swiss Chard, Tomatoes, Turnip Greens, Vegetables",,,,
Cold Run Valley Berry Farm,4262 Cold Run Valley Rd,Berkeley Springs,VA,,"4262 Cold Run Valley Rd, Berkeley Springs, West Virginia 25411","U-Pick Farm, Orchard","Blackberries, Blueberries, Raspberries",,,,
Columbia Farms U-Pick,21024 NW Gillihan Rd,Portland,OR,,"21024 NW Gillihan Rd, Portland, Oregon 97231","U-Pick Farm, Orchard","Blackberries, Blueberries, Currants, Pumpkins, Raspberries, Strawberries",,,,
Columbus Blueberry Farm,14337 US Highway 23,South Bloomfield,OH,,"14337 US Highway 23, South Bloomfield, Ohio 43103","U-Pick Farm, Orchard",Blueberries,,,,
Copeland Nursery,8335 County Road 561,Clermont,FL,34711,"8335 County Road 561, Clermont , FL 34711","U-Pick Farm, Orchard",Peaches,,,,
Corley Ranch,859 Hwy 395 South,Gardnerville,NV,,"859 Hwy 395 South, Gardnerville, Nevada 89410","U-Pick Farm, Orchard",Pumpkins,,,,
"Coston Farm, LLC",3748 Chimney Rock RoadHendersonville,Hendersonville,,,"3748 Chimney Rock RoadHendersonville, Hendersonville, 1031 28792","U-Pick Farm, Orchard",Apples,,,,
Country Apple Orchard,,,,,,"U-Pick Farm, Orchard","Apples, Pumpkins",,,,
Country Bumpkin Farm Market,9745 County Road P,Wisconsin Dells,WI,,"9745 County Road P, Wisconsin Dells, Wisconsin 53965","U-Pick Farm, Orchard","Blueberries, Pumpkins, Raspberries",,,,
Country Bumpkin Pumpkin Patch,11668 N K-31 Hwy,Harveyville,KS,,"11668 N K-31 Hwy, Harveyville, Kansas 66431","U-Pick Farm, Orchard",Pumpkins,,,,
Country Corner,,,,,,"U-Pick Farm, Orchard","Raspberries, Strawberries",,,,
Cover’s Apple Ranch,19211 Cherokee Rd,Tuolumne,CA,,"19211 Cherokee Rd, Tuolumne, California 95379","U-Pick Farm, Orchard",Apples,,,,
Cox Berry Farm,1081 State Hwy 818,Clarksville,AR,,"1081 State Hwy 818, Clarksville, Arkansas 72830","U-Pick Farm, Orchard","Apples, Blackberries, Blueberries, Pumpkins, Strawberries",,,,
Crabtree’s Blueberries,703 Bridgton Road (Rt 107),Sebago,ME,,"703 Bridgton Road (Rt 107), Sebago, Maine 04029","U-Pick Farm, Orchard",Blueberries,,,,
Crane Orchards,6054 124th Ave.,Fennville,MI,,"6054 124th Ave., Fennville, Michigan 49408","U-Pick Farm, Orchard","Apples, Cherries, Peaches",,,,
Creek Bed Farmacy,2767 Mountford Road,Poynette,WI,53955,"2767 Mountford Road, Poynette, WI 53955","Corn MazeFestivalHoney BeesPetting ZooPicnic AreaPlaygroundRestaurantSchool Field TripsU-Pick Farm, OrchardWedding Venue",Squash,,,,
Creekside Farm,300 Pine Tree Road,Selma,NC,,"300 Pine Tree Road, Selma, North Carolina 27576","U-Pick Farm, Orchard","Blackberries, Blueberries",,,,
Critz Farms,3232 Rippleton Road,Cazenovia,NY,13035,"3232 Rippleton Road, Cazenovia, NY 13035","Christmas TreesCorn MazeFestivalPetting ZooPicnic AreaPlaygroundSchool Field TripsU-Pick Farm, OrchardWinery","Apples, Blueberries, Pumpkins, Strawberries",,,,
Crooked Run Orchard,37883 W Main St,Purcellville,VA,,"37883 W Main St, Purcellville, Virginia 20132","U-Pick Farm, Orchard","Apples, Blackberries, Cherries, Gooseberries, Peaches, Pears, Plums, Pumpkins",,,,
Cross the Creek Farm,2035 Pine Road,Newville,PA,,"2035 Pine Road, Newville, Pennsylvania 17241","U-Pick Farm, Orchard",Strawberries,,,,
"Crown Jewel Farms, LLC",106 Egg Farm Rd.,Lake Wales,FL,33859,"106 Egg Farm Rd., Lake Wales, FL 33859","U-Pick Farm, Orchard",Squash,,,,
Culp Fruits,11624 County Road 51,Jemison,AL,,"11624 County Road 51, Jemison, Alabama 35085","U-Pick Farm, Orchard","Nectarines, Peaches, Plums, Tomatoes",,,,
Curbside Market & Milkshakes,29100 Krome Ave,Homestead,FL,,"29100 Krome Ave, Homestead, Florida 33030","U-Pick Farm, Orchard","Strawberries, Tomatoes",,,,
Curtis Orchard & Pumpkin Patch,3902 S. Duncan Rd.,Champaign,IL,,"3902 S. Duncan Rd., Champaign, Illinois 61822","U-Pick Farm, Orchard","Apples, Pumpkins",,,,
D & D Berry Farm,2522 Doyle Melancon Rd,Breaux Bridge,LA,70517,"2522 Doyle Melancon Rd, Breaux Bridge , LA 70517","U-Pick Farm, Orchard",Raspberries,,,,
D & D Teaching Farm,,,,,,"U-Pick Farm, Orchard","Blackberries, Blueberries, Raspberries",,,,
Dame Farm & Orchard,91B Brown Ave,Johnston,RI,,"91B Brown Ave, Johnston, Rhode Island 02919","U-Pick Farm, Orchard","Apples, Blueberries, Peaches",,,,
Dannemann Farm,19069 Blueberry Hill Rd,Kiln,MS,,"19069 Blueberry Hill Rd, Kiln, Mississippi 39556","U-Pick Farm, Orchard",Blueberries,,,,
Dargan Farms,1301 S. Charleston Rd.,Darlington,SC,,"1301 S. Charleston Rd., Darlington, South Carolina 29532","U-Pick Farm, Orchard","Pumpkins, Strawberries",,,,
Date Creek Ranch,,,,,,"U-Pick Farm, Orchard","Apples, Peaches",,,,
Day Farms,2500 W Gentile St,Layton,UT,,"2500 W Gentile St, Layton, Utah 84041","U-Pick Farm, Orchard","Peppers, Pumpkins, Tomatoes",,,,
Deep Spring Farm,,,,,,"U-Pick Farm, Orchard",Blueberries,,,,
DeGrandchamp Blueberries,76241 14th Ave.,South Haven,MI,,"76241 14th Ave., South Haven, Michigan 49090","U-Pick Farm, Orchard",Blueberries,,,,
Dempsey Farms,,,,,,"U-Pick Farm, Orchard",Strawberries,,,,
Desselle’s Citrus & More,12330 Willow Drive,New Olreans,LA,70131,"12330 Willow Drive, New Olreans, LA 70131","BakeryFarm MarketHoney BeesU-Pick Farm, Orchard","Citrus, Kumquats, Lemons, Oranges, Ready, Satsumas",,,,
Dewolf’s U-Pick Farm,58 W. Colliers Mill Rd,New Egypt,NJ,,"58 W. Colliers Mill Rd, New Egypt, New Jersey 08533","U-Pick Farm, Orchard","Blackberries, Peppers, Strawberries, Tomatoes",,,,
Dexter Blueberry Farm,11024 Beach Rd.,Dexter,MI,,"11024 Beach Rd., Dexter, Michigan 48130","U-Pick Farm, Orchard",Blueberries,,,,
Diamond Branch Farms,543 Diamond Branch Rd,Johnsonville,SC,,"543 Diamond Branch Rd, Johnsonville, South Carolina 29555","U-Pick Farm, Orchard","Pumpkins, Vegetables",,,,
Dickinson Colleg Farm,553 Park Dr,Boiling Spgs,PA,17007,"553 Park Dr, Boiling Spgs, PA 17007","CSA/Co-opFarm MarketFestivalSchool Field TripsU-Pick Farm, Orchard",Strawberries,,,,
Ditzler Orchard,,,,,,"U-Pick Farm, Orchard","Apples, Cherries, Peaches",,,,
DJ’s Berry Patch,1223 Salem Church Rd,Apex,NC,,"1223 Salem Church Rd, Apex, North Carolina 27523","U-Pick Farm, Orchard","Pumpkins, Strawberries",,,,
Doll’s Orchard,,,,,,"U-Pick Farm, Orchard",Apples,,,,
Dooley Groves Country Farm Market and U-Pick Honeybell Grove,1651 Stephens Road,Ruskin,FL,33570,"1651 Stephens Road, Ruskin, FL 33570","Farm MarketPicnic AreaU-Pick Farm, Orchard","Citrus, Oranges, Tangerines",,,,
Dougherty Orchard,1117 Doughery Road,Cambridge,IN,,"1117 Doughery Road, Cambridge, Indiana 47327","U-Pick Farm, Orchard","Apples, Pumpkins",,,,
Dr. Young’s Pond Berry Farm,,,,,,"U-Pick Farm, Orchard",Raspberries,,,,
Draper Girls Country Farm,6200 Hwy 35,Parkdale,OR,,"6200 Hwy 35, Parkdale, Oregon 97041","U-Pick Farm, Orchard",Apples,,,,
Dude’s Organic Farm,28 Seed Orchard Lane,Plains,MT,,"28 Seed Orchard Lane, Plains, Montana 59859","U-Pick Farm, Orchard","Blueberries, Peaches, Strawberries",,,,
Dunneback & Girls Farm Market,3025 6 Mile Rd NW,Grand Rapids,MI,,"3025 6 Mile Rd NW, Grand Rapids, Michigan 49544",,"Apples, Cherries, Pumpkins, Strawberries",,,6 miles,
Durocher Farm,157 Charles Bancroft Highway,Litchfield,NH,,"157 Charles Bancroft Highway, Litchfield, New Hampshire 03052","U-Pick Farm, Orchard","Blueberries, Raspberries",,,,
Dutch Farm Market,6967 109th Avenue,South Haven,MI,49090,"6967 109th Avenue, South Haven, MI 49090","U-Pick Farm, Orchard",Cherries,,,,
Eckert’s Belleville Farm,,,,,,"U-Pick Farm, Orchard","Apples, Blackberries, Peaches, Pumpkins, Strawberries",,,,
Eden Acres Family Farm,255 Ossipee Hill Rd,East Waterboro,ME,,"255 Ossipee Hill Rd, East Waterboro, Maine 04030",Pre-Picked Only,Ready Picked Only,,,,
Edge of the Woods Raspberry Farm,15285 Fairfax St.,Indianola,IA,,"15285 Fairfax St., Indianola, Iowa 50125","U-Pick Farm, Orchard","Blackberries, Blueberries, Cherries, Raspberries",,,,
Efurd Orchards,,,,,,"U-Pick Farm, Orchard",Strawberries,,,,
Ellis Harvest Home,2927 US Hwy 26,Lingle,WY,,"2927 US Hwy 26, Lingle, Wyoming 82223","U-Pick Farm, Orchard",Pumpkins,,,,
Ellsworth Hill Orchard & Berry Farm,461 Cornwall Bridge Rd Rte 4,Sharon,CT,,"461 Cornwall Bridge Rd Rte 4, Sharon, Connecticut 06069","U-Pick Farm, Orchard","Apples, Blueberries, Cherries, Peaches, Pears, Plums, Pumpkins, Raspberries, Strawberries",,,,
Endicott Farms,13310 Adams Rd,Mouds,OK,,"13310 Adams Rd, Mouds, Oklahoma 74047","U-Pick Farm, Orchard","Blackberries, Blueberries",,,,
Ergle Tree Farm,3325 Treiman Blvd,Dade City,FL,,"3325 Treiman Blvd, Dade City, Florida 33523","U-Pick Farm, Orchard","Blackberries, Blueberries, Pumpkins, Strawberries",,,,
Erwin Orchards,61475 Silver Lake Road,South Lyon,,,"61475 Silver Lake Road, South Lyon,  48178","U-Pick Farm, Orchard","Apples, Asparagus, Cherries, Juneberries, Pumpkins, Saskatoons",,,,
Evans Orchard,198 Stone Rd,Georgetown,KY,,"198 Stone Rd, Georgetown, Kentucky 40324","U-Pick Farm, Orchard","Apples, Blueberries, Pears, Strawberries",,,,
Faircloth Farm,577 Gilmore Rd,Chapel Hill,NC,,"577 Gilmore Rd, Chapel Hill, North Carolina 27516","U-Pick Farm, Orchard",Blueberries,,,,
Fairfield Fruits,6130 Little Union Rd (SR 652),Taylorsville,KY,,"6130 Little Union Rd (SR 652), Taylorsville, Kentucky 40071","U-Pick Farm, Orchard","Blackberries, Raspberries, Strawberries",,,,
Fairview Sod Farm,380 Green Giant Rd,Townsend,DE,,"380 Green Giant Rd, Townsend, Delaware 19734","U-Pick Farm, Orchard",Strawberries,,,,
Faithful Farms Peach Orchard,311 Twin Bridges Road,,OK,,"311 Twin Bridges Road, , Oklahoma 73401","U-Pick Farm, Orchard",Peaches,,,,
Farmer Mike’s U Pick,26031 Morton Ave.,Bonita Springs,FL,,"26031 Morton Ave., Bonita Springs, Florida 34135","U-Pick Farm, Orchard","Strawberries, Tomatoes",,,,
Farmer White’s Farm Market,11373 S US Highway 31,Williamsburg,MI,,"11373 S US Highway 31, Williamsburg, Michigan 49690",Pre-Picked Only,Ready Picked Only,,,,
Farmer’s Pick,8114 S Cloverdale Rd,Boise,ID,83709,"8114 S Cloverdale Rd, Boise, ID 83709","U-Pick Farm, Orchard",Flowers,,,,
Fasbender Farms You-Pick Sunflowers,,,,,,"U-Pick Farm, Orchard",Cut Flowers,,,,
Fat Robin Orchard & Farm,34126 S Finley Point Road,Polson,MT,,"34126 S Finley Point Road, Polson, Montana 59860","U-Pick Farm, Orchard","Apples, Cherries",,,,
Fenton’s Berry Farm,7217 Fork Creek Road,Harrison,AR,,"7217 Fork Creek Road, Harrison, Arkansas 72601","U-Pick Farm, Orchard","Blackberries, Blueberries",,,,
Ficner Farm,1911 Fast Landing Rd,Dover,DE,,"1911 Fast Landing Rd, Dover, Delaware 19901","U-Pick Farm, Orchard",Strawberries,,,,
Fieldstone Orchard,7049 E 149th Street,Overbrook,KS,,"7049 E 149th Street, Overbrook, Kansas 66524","U-Pick Farm, Orchard",Blackberries,,,,
Fifer Orchards,1919 Allabands Mill Road,Camden,DE,,"1919 Allabands Mill Road, Camden, Delaware 19934","U-Pick Farm, Orchard","Apples, Blueberries, Peaches, Pumpkins, Strawberries",,,,
Filasky’s Produce,1343 Bunker Hill Rd,Middleton,DE,,"1343 Bunker Hill Rd, Middleton, Delaware 19709","U-Pick Farm, Orchard","Pumpkins, Strawberries",,,,
Firefly Berries,5542 23rd St NE,Rochester,MN,,"5542 23rd St NE, Rochester, Minnesota 55906","U-Pick Farm, Orchard","Grapes, Raspberries, Strawberries",,,,
First Fruits Berry Farm,11051 South Kelley Ave,Edmond,OK,,"11051 South Kelley Ave, Edmond, Oklahoma 73025","U-Pick Farm, Orchard",Blackberries,,,,
Fisher’s Blueberries,21971 Kane Rd.,Gravette,AR,,"21971 Kane Rd., Gravette, Arkansas 72736","U-Pick Farm, Orchard",Blueberries,,,,
Fishers Orchard,650 Fisher Road,Greer,SC,,"650 Fisher Road, Greer, South Carolina 29651","U-Pick Farm, Orchard","Apples, Nectarines, Peaches",,,,
Fishkill Farms,9 Fishkill Farm Rd,Hopewell Junction,,,"9 Fishkill Farm Rd, Hopewell Junction, 1030 12533","U-Pick Farm, Orchard","Apples, Black Currants, Cherries, Nectarines, Peaches, Pumpkins",,,,
Fitch’s Farm,4413 Center Rd,Avon,OH,,"4413 Center Rd, Avon, Ohio 44011","U-Pick Farm, Orchard",Vegetables,,,,
Fleeman’s U-Pick Blueberries,716 Harrison Mill Road,Winder,GA,,"716 Harrison Mill Road, Winder, Georgia 30680","U-Pick Farm, Orchard",Blueberries,,,,
Florida Best Blueberry Farm,11135 E. Nottingham Dr.,Inverness,FL,34450,"11135 E. Nottingham Dr., Inverness, FL 34450","Honey BeesU-Pick Farm, Orchard",Blueberries,,,,
Flyte Family Farm,13450 Cottonville Ave.,Coloman,WI,,"13450 Cottonville Ave., Coloman, Wisconsin 54930","U-Pick Farm, Orchard","Blueberries, Strawberries",,,,
Froberg’s Farm,3601 West Hwy 6,Alvin,TX,,"3601 West Hwy 6, Alvin, Texas 77511","U-Pick Farm, Orchard",Strawberries,,,,
Frog Eye Farm,19600 Frog Eye Road,Knoxville,,,"19600 Frog Eye Road, Knoxville,  21758","U-Pick Farm, Orchard",Blueberries,,,,
Fruit Acres Farm,2789 Friday Road,Coloma,MI,,"2789 Friday Road, Coloma, Michigan 49038","U-Pick Farm, Orchard","Apples, Cherries, Nectarines, Peaches",,,,
Fruit Basket Orchards,253 32 1/2 Road,Grand Junction,CO,,"253 32 1/2 Road, Grand Junction, Colorado 81503","U-Pick Farm, Orchard","Apples, Apricots, Cherries, Grapes, Nectarines, Peaches, Pears, Plums, Raspberries",,,,
Fruit Ridge Hayrides,11966 Fruit Ridge Ave.,Kent City,,,"11966 Fruit Ridge Ave., Kent City, 1020 49330","U-Pick Farm, Orchard","Apples, Pumpkins",,,,
"Furger Family Farm, LLC",1204 Lovering Road,Lodi,WI,53555,"1204 Lovering Road, Lodi, WI 53555","U-Pick Farm, Orchard",Strawberries,,,,
G and S Orchards,825 Atlantic Ave. (Route 286),Walworth,NY,,"825 Atlantic Ave. (Route 286), Walworth, New York 14568","U-Pick Farm, Orchard","Apples, Blueberries, Cherries, Currants, Gooseberries, Juneberries, Pumpkins, Raspberries, Saskatoons, Strawberries",,,,
Gallrein Farms,1029 Vigo Rd,Shelbyville,KY,,"1029 Vigo Rd, Shelbyville, Kentucky 40065","U-Pick Farm, Orchard","Pumpkins, Strawberries",,,,
Gamebird Groves Inc. / Deer Park Peaches,6900 Kempfer Rd,Saint Cloud,FL,34773,"6900 Kempfer Rd, Saint Cloud, FL 34773","U-Pick Farm, Orchard","Oranges, Peaches",,,,
Garcia’s Alaska Farm,9715 S. Old Glenn Hwy,Palmer,AK,,"9715 S. Old Glenn Hwy, Palmer, Alaska 99645","U-Pick Farm, Orchard",Raspberries,,,,
Garden Patch Farms,,,,,,"U-Pick Farm, Orchard",Apples,,,,
Garden Sweet,719 W Willox Lane,Fort Collins,CO,,"719 W Willox Lane, Fort Collins, Colorado 80524","U-Pick Farm, Orchard",Strawberries,,,,
Gardner Farm,3192 Hwy 42,Locust,GA,,"3192 Hwy 42, Locust, Georgia 30248","U-Pick Farm, Orchard","Blackberries, Blueberries, Peaches",,,,
Garwood Orchards,,,,,,"U-Pick Farm, Orchard",Apples,,,,
George Hill Orchards,582 George Hill Rd,Lancaster,MA,,"582 George Hill Rd, Lancaster, Massachusetts 01523","U-Pick Farm, Orchard","Apples, Blueberries, Peaches, Pumpkins",,,,
Getman’s Orchard & Vineyard,21848 East Lakeshore,Bigfork,MT,,"21848 East Lakeshore, Bigfork, Montana 59911","U-Pick Farm, Orchard","Apples, Beans, Beets, Cherries, Peaches, Plums",,,,
Getting’s Garden,2861 Pierce Ave.,Sanborn,IA,51248,"2861 Pierce Ave., Sanborn, IA 51248","U-Pick Farm, Orchard",Strawberries,,,,
Gibson Berry Farm,375 Kelley Gap Road,Greenville,TN,,"375 Kelley Gap Road, Greenville, Tennessee 37743","U-Pick Farm, Orchard",Blueberries,,,,
Gibson Orchards,18406 S 73rd East Ave,Bixby,OK,,"18406 S 73rd East Ave, Bixby, Oklahoma 74008","U-Pick Farm, Orchard","Blackberries, Strawberries, Tomatoes",,,,
Gieringer’s Orchard & Berry Farm,39675 West 183rd St.,Edgerton,KS,,"39675 West 183rd St., Edgerton, Kansas 66021","U-Pick Farm, Orchard","Blackberries, Peaches, Pumpkins, Strawberries",,,,
Gilcrease Orchard,,,,,,"U-Pick Farm, Orchard","Carrots, Pumpkins",,,,
gilroyUpick,10541 Korn Lane,Gilroy,CA,95020,"10541 Korn Lane, Gilroy, CA 95020",Pre-Picked Only,"Apricots, Blackberries, Corn, Melons, Plums, Strawberries, Vegetables",,,,
Gin House Branch Farm,1579 Bethel Road South,Decatur,AL,,"1579 Bethel Road South, Decatur, Alabama 35603","U-Pick Farm, Orchard","Blueberries, Muscadines",,,,
Glendale Farms Inc,9895 Kluth Rd,Clintonville,WI,54929,"9895 Kluth Rd, Clintonville, WI 54929",,,,,,
Glover Farm Vineyard,373 County Road 3471,Winnsboro,TX,75494,"373 County Road 3471, Winnsboro, TX 75494","Farm MarketU-Pick Farm, Orchard","Asparagus, Broccoli, Carrots, Flowers, Garlic, Grapes, Kale, Vegetables",,,,
GNH Farms LLC,1295 Martling Gap Road,Albertville,AL,35951,"1295 Martling Gap Road, Albertville, AL 35951","Farm MarketU-Pick Farm, Orchard","Muscadines, Persimmons",,,,
Godfrey’s Farm,302 Leager Road,Sudlersville,MD,,"302 Leager Road, Sudlersville, Maryland 21668","U-Pick Farm, Orchard","Blueberries, Cherries, Cut Flowers, Peaches, Strawberries",,,,
Golden River Orchard,2250 White Cedar Road,Cheboygan,MI,,"2250 White Cedar Road, Cheboygan, Michigan 49721",Pre-Picked Only,Ready Picked Only,,,,
Golden Well Farm & Apiaries,1089 River Road,New Haven,VT,,"1089 River Road, New Haven, Vermont 05472","U-Pick Farm, Orchard",Strawberries,,,,
Good Earth,,,,,,"U-Pick Farm, Orchard",Vegetables,,,,
Gorman Farms CSA,10151 Gorman Rd,Laurel,MD,20723,"10151 Gorman Rd, Laurel, MD 20723","U-Pick Farm, Orchard",Strawberries,,,,
Gould Hill Farm,656 Gould Hill Road,Contoocook,NH,,"656 Gould Hill Road, Contoocook, New Hampshire 03229","U-Pick Farm, Orchard",Apples,,,,
Grabelsek Vineyards,5825 Rt 307 W (5825 N River Rd W),Geneva,OH,44041,"5825 Rt 307 W (5825 N River Rd W), Geneva, OH 44041","U-Pick Farm, Orchard",Grapes,,,,
Gramling Farm,493 Richardson Trail,Box Springs,GA,31801,"493 Richardson Trail, Box Springs, GA 31801","Picnic AreaU-Pick Farm, Orchard",Blueberries,,,,
Grandad’s Apples N’ Such,2951 Chimney Rock Rd,Hendersonville,NC,,"2951 Chimney Rock Rd, Hendersonville, North Carolina 28792","U-Pick Farm, Orchard",Apples,,,,
"Grape Expectations, O’Donnell’s Vineyard",10783 Burnsed and Crawford Rd,Glen St. Mary,FL,32040,"10783 Burnsed and Crawford Rd, Glen St. Mary, FL 32040","U-Pick Farm, Orchard",Grapes,,,,
Graysmarsh Farm,6187 Woodcock Road,Sequim,WA,,"6187 Woodcock Road, Sequim, Washington 98382","U-Pick Farm, Orchard","Blackberries, Blueberries, Lavender, Loganberries, Raspberries, Strawberries",,,,
Grayson’s Berryland,6705 Country Road 8,Clear Lake,MN,,"6705 Country Road 8, Clear Lake, Minnesota 55319","U-Pick Farm, Orchard","Raspberries, Strawberries",,,,
Great Country Farms,18780 Foggy Bottom Road,Bluemont,VA,,"18780 Foggy Bottom Road, Bluemont, Virginia 20135","U-Pick Farm, Orchard","Apples, Black Raspberries, Blueberries, Cherries, Grapes, Peaches, Potatoes, Pumpkins, Strawberries",,,,
Green Door Gourmet,7011 Rive Road Pike,Nashville,TN,,"7011 Rive Road Pike, Nashville, Tennessee 37209","U-Pick Farm, Orchard",Strawberries,,,,
Green Meadows Farm Organic Blueberries,177 East Bluebird Road,Monticello,FL,32344,"177 East Bluebird Road, Monticello, FL 32344","Picnic AreaU-Pick Farm, Orchard",Blueberries,,,,
Greenfield Berry Farm,2485 Major Rd.,Peninsula,OH,,"2485 Major Rd., Peninsula, Ohio 44264","U-Pick Farm, Orchard","Blueberries, Pumpkins, Raspberries, Strawberries",,,,
Greg’s U-Pick Farm,9270 Lapp Road,Clarence Center,NY,,"9270 Lapp Road, Clarence Center, New York 14032","U-Pick Farm, Orchard","Blueberries, Pumpkins, Raspberries, Strawberries",,,,
Gregg Farms,5634 Concord Rd,Concord,GA,,"5634 Concord Rd, Concord, Georgia 30206","U-Pick Farm, Orchard",Peaches,,,,
Gregg L. Friedman MD Farms,24800 SW 187th Ave,Homestead,,,"24800 SW 187th Ave, Homestead, 1007 33031","U-Pick Farm, Orchard","Green Beans, Oranges, Strawberries, Tomatoes",,,,
Greig Farm,,,,,,"U-Pick Farm, Orchard","Apples, Blackberries, Blueberries, Pumpkins, Strawberries",,,,
Griffin Berry Farm,2394 Moore Rd,Beaumont,TX,,"2394 Moore Rd, Beaumont, Texas 77713","U-Pick Farm, Orchard","Blueberries, Kumquats, Muscadines, Pears, Satsumas",,,,
Hafner’s U Pick,,,,,,"U-Pick Farm, Orchard","Blueberries, Pumpkins, Strawberries",,,,
Hallock’s U-Pick Farm,38 Fischer Rd,New Egypt,NJ,,"38 Fischer Rd, New Egypt, New Jersey 08533","U-Pick Farm, Orchard",Vegetables,,,,
Hansen Farms,33796 S Finley Point Rd,Polson,MT,59860,"33796 S Finley Point Rd, Polson, MT 59860","U-Pick Farm, Orchard",Cherries,,,,
Hanulcik Farm Market,1425 N. State Rd.,Ionia,MI,,"1425 N. State Rd., Ionia, Michigan 48846",,"Apples, Peaches, Plums, Strawberries",,,,
Happy Acres Farm,210 Wright Rd.,Roanoke Rapids,NC,27870,"210 Wright Rd., Roanoke Rapids, NC 27870","Farm MarketPetting ZooPicnic AreaPlaygroundSchool Field TripsU-Pick Farm, Orchard","Blackberries, Blueberries, Strawberries",,,,
Happy Apple Farm,1190 1st Street,Penrose,CO,,"1190 1st Street, Penrose, Colorado 81240","U-Pick Farm, Orchard","Apples, Blackberries, Pumpkins, Raspberries",,,,
Happy Valley Farm,29080 West 95th Street,De Soto,KS,,"29080 West 95th Street, De Soto, Kansas 66018","U-Pick Farm, Orchard","Blackberries, Blueberries, Bush Cherries, Gooseberries, Grapes, Raspberries",,,,
Harmony Farms,359 Saw Mill Road,Harmony,RI,,"359 Saw Mill Road, Harmony, Rhode Island 02857","U-Pick Farm, Orchard","Blackberries, Blueberries, Peaches, Raspberries",,,,
Harris Heritage Growers,27811 S. Sonoita Hwy,Wonaita,AZ,,"27811 S. Sonoita Hwy, Wonaita, Arizona 85637","U-Pick Farm, Orchard",Vegetables,,,,
Hartland Orchard,3064 Hartland Lane,Markham,VA,,"3064 Hartland Lane, Markham, Virginia 22643","U-Pick Farm, Orchard","Apples, Blueberries, Cherries, Peaches, Pumpkins, Raspberries",,,,
Harvold Berry Farm,5207 Carnation-Duvall Rd NE,Carnation,WA,,"5207 Carnation-Duvall Rd NE, Carnation, Washington 98014","U-Pick Farm, Orchard","Raspberries, Strawberries",,,,
Hatch’s blue,329 SW Elim Church Rd,Branford,FL,,"329 SW Elim Church Rd, Branford, Florida 32008","U-Pick Farm, Orchard",Blueberries,,,,
Hay Berry Farm,,,,,,"U-Pick Farm, Orchard","Blueberries, Flowers, Herbs, Lavender, Pumpkins",,,,
Hays Honey & Apple Farm,400 Esperanza Dr,Bosque Farms,NM,,"400 Esperanza Dr, Bosque Farms, New Mexico 87068","U-Pick Farm, Orchard",Apples,,,,
Hazelton Orchards,20 Harantis Lake Rd.,Chester,NH,,"20 Harantis Lake Rd., Chester, New Hampshire 03036","U-Pick Farm, Orchard","Apples, Peaches",,,,
Hazen’s Farm,1144 Peavy Rd.,Howell,MI,,"1144 Peavy Rd., Howell, Michigan 48843","U-Pick Farm, Orchard","Blueberries, Peaches, Raspberries",,,,
Heads Farm,3422 Kinneys Rd,Cedar Hill,TN,37032,"3422 Kinneys Rd, Cedar Hill, TN 37032","U-Pick Farm, Orchard","Pumpkins, Strawberries",,,,
Heart of Texas Farms,,,,,,"School Field TripsU-Pick Farm, Orchard",Blackberries,,,,
Heartland Farms,5111 Osage Rd,Waterloo,IA,,"5111 Osage Rd, Waterloo, Iowa 50703","U-Pick Farm, Orchard",Strawberries,,,,
Hebda Family Produce,,,,,,"U-Pick Farm, Orchard","Apples, Elderberries, Raspberries, Strawberries",,,,
Heider’s Berry Farm,1106 N. Queen Anne Rd,Woodstock,IL,60098,"1106 N. Queen Anne Rd, Woodstock, IL 60098","U-Pick Farm, Orchard","Black Raspberries, Blackberries, Red Raspberries, Rhubarb, Strawberries",,,,
Heidi’s Raspberry Farm,600 Andrew's Lane,Corrales,NM,,"600 Andrew's Lane, Corrales, New Mexico 87048","U-Pick Farm, Orchard",Raspberries,,,,
Henley Farms,3484 Charity Neck Road,Virginia Beach,VA,,"3484 Charity Neck Road, Virginia Beach, Virginia 23456","U-Pick Farm, Orchard","Blackberries, Strawberries, Vegetables",,,,
Henscratch Farms,980 Henscratch Rd,Lake Placid,FL,,"980 Henscratch Rd, Lake Placid, Florida 33852","U-Pick Farm, Orchard","Blueberries, Grapes, Strawberries",,,,
Herman’s Farm,,,,,,"U-Pick Farm, Orchard","Apples, Blackberries, Peaches, Pumpkins, Tomatoes",,,,
Herndon Hills Farm,7110 Massey Chapel Rd/Barbee Rd,Durham,NC,,"7110 Massey Chapel Rd/Barbee Rd, Durham, North Carolina 27713","U-Pick Farm, Orchard","Blackberries, Blueberries, Muscadines",,,,
Herot Hall Farms,1593 Emma Road,Kenna,VA,,"1593 Emma Road, Kenna, West Virginia 25248","U-Pick Farm, Orchard",Blueberries,,,,
Herzog Berries,29917 Twin Pine Road,Underwood,MN,,"29917 Twin Pine Road, Underwood, Minnesota 56586","U-Pick Farm, Orchard",Strawberries,,,,
Hidden Hollow Orchard,3200 Apple Hill Road,Louisville,KY,,"3200 Apple Hill Road, Louisville, Kentucky 40245","U-Pick Farm, Orchard",Apples,,,,
High Altitude Rhubarb–Organic Farm & Nusery,7275 Wildridge Rd,Black Forest,CO,80908,"7275 Wildridge Rd, Black Forest, CO 80908","Honey BeesPicnic AreaU-Pick Farm, Orchard","Horseraddish, Rhubarb",,,,
High Springs Orchard & Bakery,10804 NW State Road 45,High Springs,FL,,"10804 NW State Road 45, High Springs, Florida 32643","U-Pick Farm, Orchard","Blueberries, Chestnuts, Figs, Grapes, Pears, Persimmons",,,,
Hill Orchards,86 Winsor Ave,Johnston,RI,,"86 Winsor Ave, Johnston, Rhode Island 02919","U-Pick Farm, Orchard","Apples, Plums",,,,
Hillcrest Blueberry Farm,766 Ferguson Road,Gloster,LA,,"766 Ferguson Road, Gloster, Louisiana 71030","U-Pick Farm, Orchard","Blackberries, Blueberries",,,,
Hillcrest Orchards,50336 Telegraph Road,Amherst,OH,,"50336 Telegraph Road, Amherst, Ohio 44001","U-Pick Farm, Orchard","Apples, Pumpkins",,,,
Hillcrest Orchards,9696 Hwy 52 East,Ellijay,,,"9696 Hwy 52 East, Ellijay, 1008 30536","U-Pick Farm, Orchard",Apples,,,,
Hillside Orchard,2024 Ashland Road,Ceresco,NE,,"2024 Ashland Road, Ceresco, Nebraska 68017","U-Pick Farm, Orchard","Apples, Peaches, Pumpkins, Raspberries",,,,
Hillside Orchard Farms,18 Sorghum Mill Dr,Lakemont,GA,,"18 Sorghum Mill Dr, Lakemont, Georgia 30552","U-Pick Farm, Orchard",Apples,,,,
Hinton’s Orchard & Farm Market,8631 Campbellsville Road,Hodgenville,KY,,"8631 Campbellsville Road, Hodgenville, Kentucky 42748","U-Pick Farm, Orchard","Pumpkins, Strawberries",,,,
Historic Weston Orchard and Vineyard,18545 County Rd H,Weston,MO,64098,"18545 County Rd H, Weston, MO 64098","BakeryCorn MazeFarm MarketFestivalHoney BeesPetting ZooPicnic AreaPlaygroundSchool Field TripsU-Pick Farm, OrchardWedding VenueWinery","Apples, Blackberries, Cherries, Grapes, Peaches, Pumpkins, Strawberries, Tomatoes, Vegetables, Watermelons",,,,
Hockaday Orchards,45 Hockaday Lane,Lakeside,MT,,"45 Hockaday Lane, Lakeside, Montana 59922","U-Pick Farm, Orchard",Cherries,,,,
Holland Bottom Farm,1255 Bill Foster Memorial Hwy (Ark State 321),Cabot,AR,,"1255 Bill Foster Memorial Hwy (Ark State 321), Cabot, Arkansas 72023","U-Pick Farm, Orchard",Strawberries,,,,
Hollin Farms,1410 Snowden Rd.,Delaplane,VA,20144,"1410 Snowden Rd., Delaplane , VA 20144","U-Pick Farm, Orchard",Squash,,,,
Holmestead Farm U-Pick,6582 Clay County Road 7,Talladega,,,"6582 Clay County Road 7, Talladega, 999 35160","U-Pick Farm, Orchard","Blackberries, Blueberries, Strawberries",,,,
Homestead Farm,15604 Sugarland Road,Poolesville,MD,,"15604 Sugarland Road, Poolesville, Maryland 20837","U-Pick Farm, Orchard","Apples, Blackberries, Blueberries, Cherries, Peaches, Pumpkins, Strawberries",,,,
Homestead Orchard,,,,,,"U-Pick Farm, Orchard","Apples, Cherries, Pears",,,,
Honey Hill Orchard,,,,,,"U-Pick Farm, Orchard","Apples, Pumpkins, Raspberries",,,,
Honeys Blueberry Farm,4333 Kingston hwy,Loudon,TN,37774,"4333 Kingston hwy, Loudon, TN 37774","U-Pick Farm, Orchard","Blackberries, Blueberries, Muscadines",,,,
Honeysuckle Hill Farm,1765 Martins Chapel Church Rd.,Springfield,TN,,"1765 Martins Chapel Church Rd., Springfield, Tennessee 37172","U-Pick Farm, Orchard","Apples, Pumpkins",,,,
Hood River U-Pick,4320 Royal Anne Dr.,Hood River,OR,,"4320 Royal Anne Dr., Hood River, Oregon 97031","U-Pick Farm, Orchard","Apples, Blueberries, Cherries, Flowers, Garlic, Raspberries, Tomatoes",,,,
Hooper’s Orchard,856 Back Brooks Rd,Monroe,ME,04951,"856 Back Brooks Rd, Monroe, ME 04951","U-Pick Farm, Orchard","Apples, Peaches, Pears",,,,
Hope Fruit & Berry Farm,,,,,,"U-Pick Farm, Orchard","Blackberries, Blueberries, Muscadines, Peaches",,,,
Hope Orchard,434 Camden Road,Hope,ME,,"434 Camden Road, Hope, Maine 04847","U-Pick Farm, Orchard","Apples, Pears",,,,
Hoxsie’s Farm Market,6620 M-72 East,Williamsburg,MI,,"6620 M-72 East, Williamsburg, Michigan 49690","U-Pick Farm, Orchard","Apples, Pumpkins",,,,
Hungry Mother Organics,3190 Hwy 395,Minden,NV,,"3190 Hwy 395, Minden, Nevada 89423","U-Pick Farm, Orchard","Flowers, Herbs, Peppers, Strawberries, Tomatoes",,,,
Hunt’s Berry Farm,760 Saint Clair Cemetery Ln,Big Spring,KY,40175,"760 Saint Clair Cemetery Ln, Big Spring, KY 40175","Honey BeesU-Pick Farm, Orchard",Blueberries,,,,
Impossible Acres,26565 Rd 97D,Davis,CA,,"26565 Rd 97D, Davis, California 95616","U-Pick Farm, Orchard","Apples, Apricots, Blackberries, Boysenberries, Cherries, Peaches, Pumpkins, Raspberries, Tomatoes",,,,
Indian Ladder Farms,,,,,,"U-Pick Farm, Orchard","Apples, Blueberries, Pumpkins, Raspberries, Strawberries",,,,
Innisfree Fruit Farm,2309 Riley Road,Ottawa,KS,,"2309 Riley Road, Ottawa, Kansas 66067","U-Pick Farm, Orchard","Blueberries, Raspberries, Strawberries",,,,
Iowa Orchard,9875 Meredith Dr,Urbandale,IA,,"9875 Meredith Dr, Urbandale, Iowa 50322","U-Pick Farm, Orchard","Apples, Blueberries, Peaches, Raspberries",,,,
Iverson Family Farm,8580 Valley Line Road,Oconto Falls,WI,54154,"8580 Valley Line Road, Oconto Falls, WI 54154",,"Apples, Cherries, Pears, Plums",,,,
Jacketts Pumpkins,19733 State Highway 220,Casper,WY,,"19733 State Highway 220, Casper, Wyoming 82604","U-Pick Farm, Orchard",Pumpkins,,,,
Jacobs Corn Maze,7100 East Traverse Hwy (M-72 West),Traverse City,,,"7100 East Traverse Hwy (M-72 West), Traverse City,  49684","U-Pick Farm, Orchard","Juneberries, Pumpkins, Raspberries, Saskatoons, Strawberries",,,,
Jacobs Family Berry Farm,1335 Centerville Lane,Gardnerville,NV,,"1335 Centerville Lane, Gardnerville, Nevada 89410",Pre-Picked Only,Ready Picked Only,,,,
Jaemor Farms,5340 Cornelia Hwy,Alto,GA,,"5340 Cornelia Hwy, Alto, Georgia 30510","U-Pick Farm, Orchard","Apples, Peaches, Pumpkins, Strawberries",,,,
Jaswell’s Farm,50 Swan Road,Smithfield,RI,,"50 Swan Road, Smithfield, Rhode Island 02917","U-Pick Farm, Orchard",Apples,,,,
Jeff & Laurie Bellmore,,,,,,"U-Pick Farm, Orchard",Blueberries,,,,
Jenkins – Lueken Orchards,,,,,,"U-Pick Farm, Orchard","Apples, Blackberries, Pumpkins, Raspberries",,,,
Jenschke Orchards,8301 East Us Hwy 290,Frederickburg,TX,,"8301 East Us Hwy 290, Frederickburg, Texas 78624","U-Pick Farm, Orchard","Blackberries, Peaches, Plums, Tomatoes",,,,
JG Ranch,17200 Wiscon Road,Brooksville,FL,,"17200 Wiscon Road, Brooksville, Florida 34601","U-Pick Farm, Orchard","Blackberries, Blueberries, Strawberries",,,,
Joan & Brad’s Berry Farm,447 Deerwander Road,Hollis,,,"447 Deerwander Road, Hollis, 1017 04042","U-Pick Farm, Orchard",Blueberries,,,,
Joe Huber’s Farm,2421 Scottsville Rd.,Starlight,IN,,"2421 Scottsville Rd., Starlight, Indiana 47106","U-Pick Farm, Orchard","Apples, Pumpkins, Strawberries",,,,
Johnson Corner Farm,133 Church Rd,Medford,NJ,,"133 Church Rd, Medford, New Jersey 08055","U-Pick Farm, Orchard","Blueberries, Corn, Peaches, Peas, Strawberries",,,,
Johnson Orchards,4906 Summitview Ave,Yakima,WA,,"4906 Summitview Ave, Yakima, Washington 98908","U-Pick Farm, Orchard","Apples, Cherries, Nectarines, Peaches, Pears, Plums",,,,
Johnson’s Farm Produce,8960 E Ridge Rd,Hobart,IN,,"8960 E Ridge Rd, Hobart, Indiana 46342","U-Pick Farm, Orchard","Blueberries, Raspberries, Strawberries",,,,
Jollay Orchards Farm,1850 Friday Road,Coloma,MI,,"1850 Friday Road, Coloma, Michigan 49038","U-Pick Farm, Orchard","Apples, Cherries, Peaches, Pumpkins",,,,
Jones Creek Farms,32260 Burrese Rd,Sedro Woolley,WA,98284,"32260 Burrese Rd, Sedro Woolley, WA 98284","U-Pick Farm, Orchard","Apples, Peaches, Pears, Plums, Pumpkins",,,,
Jones Family Farm,2107 Philadelphia Rd.,Edgewood,MD,,"2107 Philadelphia Rd., Edgewood, Maryland 21040","U-Pick Farm, Orchard","Pumpkins, Strawberries",,,,
Jones Family Farms,606 Walnut Tree Hill Rd,Shelton,CT,,"606 Walnut Tree Hill Rd, Shelton, Connecticut 06484","U-Pick Farm, Orchard","Blueberries, Pumpkins, Strawberries",,,,
Jones Orchard & Market,7170 Highway 51 North,Millington,TN,,"7170 Highway 51 North, Millington, Tennessee 38053","U-Pick Farm, Orchard","Apples, Blackberries, Blueberries, Nectarines, Peaches, Pears, Plums, Pumpkins, Strawberries",,,,
Jubilee Orchards Organic,12008 Miccosukee Rd,Tallahassee,FL,32309,"12008 Miccosukee Rd, Tallahassee, FL 32309","U-Pick Farm, Orchard",Blueberries,,,12008 miles,
Justus Orchard,187 Garren Rd,Hendersonville,NC,28792,"187 Garren Rd, Hendersonville , NC 28792","U-Pick Farm, Orchard","Apples, Blackberries",,,,
Kaye Family Farms,,,,,,"U-Pick Farm, Orchard",Lychees,,,,
Keith’s Farm,429 Main St.,Acushnet,MA,,"429 Main St., Acushnet, Massachusetts 02743","U-Pick Farm, Orchard","Apples, Pumpkins, Raspberries, Strawberries",,,,
Kelley Orchards,53 Hill Road,Weiser,ID,,"53 Hill Road, Weiser, Idaho 83672","U-Pick Farm, Orchard","Apples, Cherries, Nectarines, Peaches, Pears, Plums, Tomatoes",,,,
Kelley’s Berry Farm – Niota,352 Hwy 309,Niota,TN,37826,"352 Hwy 309, Niota, TN 37826","U-Pick Farm, Orchard","Blackberries, Blueberries",,,,
Kelly Orchards,82 Sanborn Rd.,Acton,ME,04001,"82 Sanborn Rd., Acton, ME 04001","U-Pick Farm, Orchard","Apples, Peaches, Pumpkins",,,,
Kenny’s Strawberry Farm,953 Rainbow Valley Blvd,Fallbrook,CA,,"953 Rainbow Valley Blvd, Fallbrook, California 92028","U-Pick Farm, Orchard","Pumpkins, Strawberries, Vegetables, Watermelons",,,,
Kimmel Orchard & Vineyard,5995 G Rd,Nebraska City,NE,,"5995 G Rd, Nebraska City, 1025 68410","U-Pick Farm, Orchard","Apples, Blackberries, Cherries, Peaches, Pears, Pumpkins, Strawberries",,,,
King Grove Organic Farm,19714 County Road 44A,Eustis,FL,32736,"19714 County Road 44A, Eustis, FL 32736","U-Pick Farm, Orchard",Blueberries,,,,
King Orchard,,,,,,"U-Pick Farm, Orchard","Apples, Apricots, Cherries, Nectarines, Peaches, Raspberries",,,,
King’s Farm Market,2559 Highway 174,Edisto Island,SC,,"2559 Highway 174, Edisto Island, South Carolina 29438","U-Pick Farm, Orchard","Peaches, Vegetables",,,,
Kirschbaum’s Strawberry Acres,5802 US Highway 151,Beaver Dam,WI,,"5802 US Highway 151, Beaver Dam, Wisconsin 53916","U-Pick Farm, Orchard",Strawberries,,,,
Kiyokawa Family Orchards,8129 Clear Creek Road,Mt. Hood/Parkdale,OR,97041,"8129 Clear Creek Road, Mt. Hood/Parkdale, OR 97041","U-Pick Farm, Orchard","Apples, Blueberries, Cherries, Currants, Peaches, Pears, Rhubarb",,,,
Knaus Berry Farm,15980 SW 248th Street,Homestead,FL,,"15980 SW 248th Street, Homestead, Florida 33031","U-Pick Farm, Orchard","Strawberries, Tomatoes",,,,
Knutson’s Country Harvest,,,,,,"U-Pick Farm, Orchard","Apples, Blackberries, Blueberries, Peaches, Pears, Raspberries",,,,
Koltiska’s Pumpkin Patch,120 Cat Creek Rd,Sheridan,WY,,"120 Cat Creek Rd, Sheridan, Wyoming 82801","U-Pick Farm, Orchard",Pumpkins,,,,
Krasinski’s U-Pick Blueberries,3163 Rolling Stone Rd,Morrisdale,PA,,"3163 Rolling Stone Rd, Morrisdale, Pennsylvania 16858","U-Pick Farm, Orchard",Blueberries,,,,
Krueger’s Vegetable Farm Stand,28572 W. IL Route 120,Lakemoor,IL,60051,"28572 W. IL Route 120, Lakemoor, IL 60051",Pre-Picked Only,"Green Beans, Tomatoes",,,,
Kuipers Family Farm,,,,,,"U-Pick Farm, Orchard","Apples, Pumpkins",,,,
Kula Country Farms,375 Koheo Rd,Kula,HI,,"375 Koheo Rd, Kula, Hawaii 96790","U-Pick Farm, Orchard","Pumpkins, Strawberries",,,,
L & M Farm,7170 County Road 321,Jewett,TX,75846,"7170 County Road 321, Jewett, TX 75846","U-Pick Farm, Orchard",Blackberries,,,,
Lakeview Berry Farm,1746 Bergen Road,Mosinee,WI,,"1746 Bergen Road, Mosinee, Wisconsin 54455","U-Pick Farm, Orchard","Blueberries, Currants, Gooseberries, Raspberries, Rhubarb, Strawberries",,,,
Lakeview Farms,8265 Mexico Road,St. Peters,MO,,"8265 Mexico Road, St. Peters, Missouri 63376","U-Pick Farm, Orchard","Raspberries, Strawberries",,,,
Landess Farm,60000 W County Road 700 S,Daleville,IN,,"60000 W County Road 700 S, Daleville, Indiana 47334","U-Pick Farm, Orchard","Pumpkins, Strawberries",,,,
Landry-Poche Farms,29955 Richardson Drive,Holden,LA,,"29955 Richardson Drive, Holden, Louisiana 70744","U-Pick Farm, Orchard",Strawberries,,,,
Lang’s Orchard,17411 Secor Rd.,Woodstock,IL,60098,"17411 Secor Rd., Woodstock, IL 60098","U-Pick Farm, Orchard",Apples,,,,
Larken Farms,3653 Greathouse Rd,Waxahachie,TX,,"3653 Greathouse Rd, Waxahachie, Texas 75167","U-Pick Farm, Orchard","Blackberries, Peaches, Pears, Plums",,,,
Last Resort Farm,2246 Tyler Bridge Rd,Monkton,VT,,"2246 Tyler Bridge Rd, Monkton, Vermont 05443","U-Pick Farm, Orchard","Currants, Strawberries",,,,
Late Bloom Blueberry Farm,115 Scenic Hwy,Haines City,FL,33844,"115 Scenic Hwy, Haines City, FL 33844","U-Pick Farm, Orchard",Blueberries,,,,
Lattin Farms,1955 McLean Road,Fallon,NV,,"1955 McLean Road, Fallon, Nevada 89406","U-Pick Farm, Orchard",Pumpkins,,,,
Lautenbach’s Orchard Country Winery & Market,9197 Hwy 42,Fish Creek,,,"9197 Hwy 42, Fish Creek,  54212","U-Pick Farm, Orchard","Apples, Cherries",,,,
Lavoie’s Farm,172 Nartoff Road,Hollis,NH,,"172 Nartoff Road, Hollis, New Hampshire 03049","U-Pick Farm, Orchard","Apples, Blueberries, Pumpkins, Strawberries",,,,
Lawrence Farms Orchards,,,,,,"U-Pick Farm, Orchard","Apples, Apricots, Cherries, Currants, Grapes, Peaches, Pears, Peas, Plums, Raspberries, Strawberries",,,,
Lazy U Farm,5608 Elon Rd,Macon,MS,,"5608 Elon Rd, Macon, Mississippi 39341","U-Pick Farm, Orchard",Pumpkins,,,,
Ledgeview Gardens LLC,5291 Cottonwood Ln,De Pere,WI,54115,"5291 Cottonwood Ln, De Pere, WI 54115",Pre-Picked Only,,,,,
Lee Turkey Farm,201 Hickory Corner Rd,East Windsor,NJ,,"201 Hickory Corner Rd, East Windsor, New Jersey 08520","U-Pick Farm, Orchard","Apples, Blackberries, Cherries, Melons, Nectarines, Peaches, Pears, Raspberries, Strawberries",,,,
Lee Vineyard,10251 McIntosh Road,Dover,FL,33527,"10251 McIntosh Road, Dover, FL 33527","U-Pick Farm, Orchard","Chestnuts, Loganberries, Lychees, Muscadines, Pears, Persimmons",,,,
Lehman’s Orchard,2280 Portage Road,Niles,MI,,"2280 Portage Road, Niles, Michigan 49120","U-Pick Farm, Orchard","Apples, Blueberries, Cherries, Peaches, Pears, Raspberries, Strawberries",,,,
Lewin Farms,,,,,,"U-Pick Farm, Orchard","Apples, Blackberries, Blueberries, Eggplant, Peaches, Peppers, Pumpkins, Strawberries, Tomatoes",,,,
Libby & Son U-Picks,86 Sawyer Mt. Rd.,Limerick,ME,,"86 Sawyer Mt. Rd., Limerick, Maine 04048","U-Pick Farm, Orchard","Apples, Blueberries, Peaches, Raspberries",,,,
Lilys Upick Farm,1633 Duncan Reidville Rd,Duncan,SC,29334,"1633 Duncan Reidville Rd, Duncan, SC 29334","Farm MarketU-Pick Farm, Orchard","Figs, Muscadines, Peaches, Pears, Persimmons, Plums",,,,
Little River Flower Farm,160 Turkey Lane,Buxton,ME,04093,"160 Turkey Lane, Buxton, ME 04093","U-Pick Farm, Orchard",Blueberries,,,,
Liuzza Land & Berry Barn,,,,,,"U-Pick Farm, Orchard","Pumpkins, Strawberries",,,,
Livesay Orchards,39232 East 231st St. South,Porter,OK,,"39232 East 231st St. South, Porter, Oklahoma 74454","U-Pick Farm, Orchard","Apples, Peaches, Pumpkins",,,,
Loblolly Acres,3893 Turkey Point Road,Woodside,DE,,"3893 Turkey Point Road, Woodside, Delaware 19980","U-Pick Farm, Orchard",Strawberries,,,,
Loblolly Ridge Farm,1000 Andrew Bankson Road,Amite,LA,,"1000 Andrew Bankson Road, Amite, Louisiana 70422","U-Pick Farm, Orchard",Blueberries,,,,
Lockbriar Farms,10051 Worton Rd,,MD,,"10051 Worton Rd, , Maryland 21620","U-Pick Farm, Orchard","Apricots, Blackberries, Blueberries, Nectarines, Peaches, Pumpkins, Raspberries, Strawberries",,,,
Long Pumpkin Patch,163 NE 30 Rd,Great Bend,KS,,"163 NE 30 Rd, Great Bend, Kansas 67530","U-Pick Farm, Orchard",Pumpkins,,,,
Lost Branch Blueberry Farm,21507 Lost Branch Way,Brashear,MO,,"21507 Lost Branch Way, Brashear, Missouri 63533","U-Pick Farm, Orchard",Blueberries,,,,
Louisiana Herbs,276 Breston Lane,Riverton,LA,,"276 Breston Lane, Riverton, Louisiana 71418","U-Pick Farm, Orchard","Herbs, Pecans",,,,
Love Creek Orchards,14024 State Highway 16 N,Medina,TX,,"14024 State Highway 16 N, Medina, Texas 78055","U-Pick Farm, Orchard","Apples, Blackberries, Figs, Peaches, Persimmons",,,,
Lungren Girls Farm,1372 S Flat Rd,Worland,WY,,"1372 S Flat Rd, Worland, Wyoming 82401","U-Pick Farm, Orchard",Pumpkins,,,,
LushAcres Farm,1875 W. Maple Street Extension,Clinton,SC,29325,"1875 W. Maple Street Extension, Clinton, SC, SC 29325","Christmas TreesCorn MazeFarm MarketFestivalHoney BeesPetting ZooPicnic AreaPlaygroundSchool Field TripsU-Pick Farm, Orchard","Blackberries, Blueberries, Flowers, Pumpkins, Strawberries",,,,
Lutz Family Farm,1477 Highway T,Marshall,WI,,"1477 Highway T, Marshall, Wisconsin 53559","U-Pick Farm, Orchard","Peas, Strawberries",,,,
Lyman Orchards,32 Reeds Gap Rd,Middlefield,CT,,"32 Reeds Gap Rd, Middlefield, Connecticut 06455","U-Pick Farm, Orchard","Apples, Blueberries, Jostaberries, Nectarines, Peaches, Pears, Raspberries, Strawberries",,,,
Lynd Fruit Farm,9090 Morse Rd SW,Pataskala,OH,,"9090 Morse Rd SW, Pataskala, Ohio 43062","U-Pick Farm, Orchard","Apples, Pumpkins",,,,
Mack’s Apples,230 Mammoth Road,Londonderry,NH,,"230 Mammoth Road, Londonderry, New Hampshire 03053","U-Pick Farm, Orchard","Apples, Pumpkins",,,,
Mackintosh Fruit Farm,1608 Russell Rd,Berryville,VA,,"1608 Russell Rd, Berryville, Virginia 22611","U-Pick Farm, Orchard","Apples, Peaches",,,,
Mad Tom Orchard,2615 Mad Tom Road,East Dorset,VT,,"2615 Mad Tom Road, East Dorset, Vermont 05253","U-Pick Farm, Orchard","Apples, Raspberries",,,,
Magee Farms,34857 Lighthouse Rd,Selbyville,DE,,"34857 Lighthouse Rd, Selbyville, Delaware 19975","U-Pick Farm, Orchard",Strawberries,,,,
Malek’s Berry Ranch,,,,,,"U-Pick Farm, Orchard","Blueberries, Raspberries, Strawberries",,,,
Maple Creek Berry Farm,,,,,,"U-Pick Farm, Orchard",Blueberries,,,,
Maple Lawn Farms,2885 New Park Rd,New Park,PA,,"2885 New Park Rd, New Park, Pennsylvania 17352","U-Pick Farm, Orchard","Apples, Apricots, Blueberries, Cherries, Peaches, Pumpkins",,,,
Marburger Orchard,559 Kuhlmann Rd,Frederickburg,TX,,"559 Kuhlmann Rd, Frederickburg, Texas 78624","U-Pick Farm, Orchard","Blackberries, Peaches, Strawberries",,,,
Masker Orchards,,,,,,"U-Pick Farm, Orchard",Apples,,,,
Matt Family Orchard,21110 Bauer Hockley Road,Tomball,TX,,"21110 Bauer Hockley Road, Tomball, Texas 77377","U-Pick Farm, Orchard","Blackberries, Blueberries, Dates, Figs, Pears, Persimmons, Pumpkins",,,,
Maxwells Farm,527 Ocean House Rd.,Cape Elizabeth,ME,,"527 Ocean House Rd., Cape Elizabeth, Maine 04107","U-Pick Farm, Orchard",Strawberries,,,,
McBride Briar Patch,,,,,,"U-Pick Farm, Orchard","Blackberries, Raspberries",,,,
McCann Berry Farm,,,,,,"U-Pick Farm, Orchard",Peas,,,,
McCartney Orchard,2537 Hillandale rd,Sodus,MI,49126,"2537 Hillandale rd, Sodus, MI 49126","U-Pick Farm, Orchard",Squash,,,,
McClure’s Orchard,,,,,,"U-Pick Farm, Orchard",Apples,,,,
McCraw Farms,7299 County Road 15,Maplesbille,AL,,"7299 County Road 15, Maplesbille, Alabama 36750","U-Pick Farm, Orchard","Blackberries, Figs, Nectarines, Peaches, Plums",,,,
McGrath Family Farm,1012 W Ventura Blvd,Camarillo,CA,,"1012 W Ventura Blvd, Camarillo, California 93010","U-Pick Farm, Orchard",Squash,,,,
McLean Family Farms,19207 Windjammer Rd.,Clermont,FL,34715,"19207 Windjammer Rd., Clermont, FL 34715","U-Pick Farm, Orchard","Citrus, Peaches, Squash",,,,
McLeod Farms,29247 Highway 151,McBee,SC,,"29247 Highway 151, McBee, South Carolina 29101","U-Pick Farm, Orchard","Blackberries, Peaches, Strawberries, Vegetables",,,,
Mead Orchards,,,,,,"U-Pick Farm, Orchard","Blueberries, Cherries, Peaches, Strawberries",,,,
Meadow Ledge Farm,612 Route 129,Loudon,NH,,"612 Route 129, Loudon, New Hampshire 03307","U-Pick Farm, Orchard",Apples,,,,
Meadowlark Farm Orchard & Cidery,11249 SW 160th St,Rose Hill,KS,67133,"11249 SW 160th St, Rose Hill, KS 67133","U-Pick Farm, Orchard",Raspberries,,,,
Melick's Town Farm,19 King Street,Oldwick,NJ,08858,"19 King Street, Oldwick, NJ 08858","U-Pick Farm, Orchard","Apples, Cut Flowers, Peaches, Pumpkins, Strawberries",,,,
Mercier Orchards,8660 Blue Ridge Drive,Blue Ridge,,,"8660 Blue Ridge Drive, Blue Ridge, 1008 30513","U-Pick Farm, Orchard","Apples, Strawberries",,,,
Mesilla Valley Apples,,,,,,"U-Pick Farm, Orchard",Apples,,,,
Messick’s Farm Market,6025 Catlett Rd,Bealeton,VA,22712,"6025 Catlett Rd, Bealeton, VA 22712","BakeryCorn MazeCSA/Co-opFarm MarketFestivalHoney BeesPetting ZooPicnic AreaPlaygroundRestaurantSchool Field TripsU-Pick Farm, OrchardWinery","Blackberries, Blueberries, Strawberries",,,,
Milburn Orchards,1495 Appleton Road,Elkton,MD,,"1495 Appleton Road, Elkton, Maryland 21921","U-Pick Farm, Orchard","Apples, Blackberries, Blueberries, Cherries, Grapes, Nectarines, Peaches, Plums, Pumpkins, Raspberries",,,,
Miller Blueberry Farm,1371 Union Church Rd,Watkinsville,GA,,"1371 Union Church Rd, Watkinsville, Georgia 30677","U-Pick Farm, Orchard",Blueberries,,,,
Millican’s Heritage Christmas tree farm,,,,,,"Christmas TreesHoney BeesPicnic AreaSchool Field TripsU-Pick Farm, Orchard",Raspberries,,,,
Mirror Image Farms,600 N. 2nd Street,Bainbridge,PA,17502,"600 N. 2nd Street, Bainbridge, PA 17502","U-Pick Farm, Orchard",Raspberries,,,,
Mitcham Farm,797 W Macedonia Church Rd,Oxford,GA,,"797 W Macedonia Church Rd, Oxford, Georgia 30054","U-Pick Farm, Orchard","Blackberries, Blueberries, Strawberries",,,,
Mithchell Farms,650 Leaf River Church Road,Collins,MS,,"650 Leaf River Church Road, Collins, Mississippi 39428","U-Pick Farm, Orchard","Blackberries, Blueberries, Tomatoes, Vegetables",,,,
Mommsen’s Harvest Hills,1696 20 1/2 Street,Rice Lake,WI,54868,"1696 20 1/2 Street, Rice Lake, WI 54868",,Apples,,,,
Monroe’s Orchard & Farm Market,,,,,,"U-Pick Farm, Orchard","Apples, Cherries, Raspberries, Strawberries",,,,
Monte Vista Organic Farm,,,,,,"U-Pick Farm, Orchard",Raspberries,,,,
Moore Orchards,1727 S Sasse Road,Midland,MI,,"1727 S Sasse Road, Midland, Michigan 48640",Pre-Picked Only,Ready Picked Only,,,,
Moran Fruit Farm,10920 S Power Ave.,Floral City,FL,,"10920 S Power Ave., Floral City, Florida 34436","U-Pick Farm, Orchard","Grapes, Nectarines, Peaches, Pears, Persimmons, Plums",,,,
Morgan Creek Farm & Markets,16505 16th Ave SW,Cedar Rapids,IA,,"16505 16th Ave SW, Cedar Rapids, Iowa 52404","U-Pick Farm, Orchard",Strawberries,,,,
Morgan Orchard,2970 Neff Orchard Rd,Sinks Grove,VA,,"2970 Neff Orchard Rd, Sinks Grove, West Virginia 24976","U-Pick Farm, Orchard","Apples, Blackberries, Peaches, Pumpkins, Raspberries",,,,
Morris Vineyard,346 Union Grove Rd.,Charleston,TN,,"346 Union Grove Rd., Charleston, Tennessee 37310","U-Pick Farm, Orchard","Blackberries, Blueberries, Muscadines, Raspberries",,,,
Mortimer Farms,12907 E. State Route 169,Dewey,AZ,,"12907 E. State Route 169, Dewey, Arizona 86327","U-Pick Farm, Orchard","Pumpkins, Vegetables",,,,
Mosher Farms,,,,,,"U-Pick Farm, Orchard","Raspberries, Strawberries",,,,
Mountain Brook Ranch,17971 Auberry Rd,Clovis,CA,,"17971 Auberry Rd, Clovis, California 93611","U-Pick Farm, Orchard","Apricots, Blueberries, Boysenberries, Cherries",,,,
Mountainview Blueberry Farm,7617 E Lowell-Larimer Rd,Snohomish,WA,,"7617 E Lowell-Larimer Rd, Snohomish, Washington 98296","U-Pick Farm, Orchard",Blueberries,,,,
Mr. Pepper’s Pumpkin Patch,13500 Laurel Road,Laurel,DE,,"13500 Laurel Road, Laurel, Delaware 19956","U-Pick Farm, Orchard",Pumpkins,,,,
Mt. Naomi Farms,,,,,,"U-Pick Farm, Orchard","Apples, Blackberries, Grapes, Pumpkins, Raspberries",,,,
Mt. View Orchards,6670 Trout Creek Rd,Mt Hood,OR,,"6670 Trout Creek Rd, Mt Hood, Oregon 97041","U-Pick Farm, Orchard","Apples, Pears",,,,
Mule Barn Berries,223 NE Mule Barn Rd,Lathrop,MO,,"223 NE Mule Barn Rd, Lathrop, Missouri 64465","U-Pick Farm, Orchard","Blackberries, Raspberries, Strawberries",,,,
Muletown Muscadine Vineyard,1249 Buckthorn Lane,Columbia,TN,38401,"1249 Buckthorn Lane, Columbia, TN 38401","U-Pick Farm, Orchard",Grapes,,,,
Mullen Produce,21082 River Rd. NE,St. Paul,OR,97137,"21082 River Rd. NE, St. Paul, OR 97137","U-Pick Farm, Orchard",Tomatoes,,,,
Myers Strawberries,1429 Auction Rd,Manheim,PA,,"1429 Auction Rd, Manheim, Pennsylvania 17545","U-Pick Farm, Orchard",Strawberries,,,,
Neal’s Berry Farm,21104 Binford Road,Waller,TX,77484,"21104 Binford Road, Waller, TX 77484","Farm MarketU-Pick Farm, Orchard","Blackberries, Figs, Flowers, Vegetables",,,,
Nelson’s Farm Market,469 W 112th St.,Grant,MI,,"469 W 112th St., Grant, Michigan 49327",Pre-Picked Only,Ready Picked Only,,,,
Nesbit Blueberry Plantation,690 Bankston Road,Nesbit,MS,,"690 Bankston Road, Nesbit, Mississippi 38651","U-Pick Farm, Orchard",Blueberries,,,,
Nordland Farms Produce,131 East Main Street,Columbus,PA,16405,"131 East Main Street, Columbus, PA 16405","U-Pick Farm, Orchard","Beans, Corn, Cucumbers, Cut Flowers, Eggplant, Flowers, Green Beans, Herbs, Peppers, Squash, Tomatoes, Vegetables",,,,
Nottawa Fruit Farm,,,,,,"U-Pick Farm, Orchard",Strawberries,,,,
Nugget Farm,100-118 N Cushman St,Fairbanks,AK,,"100-118 N Cushman St, Fairbanks, Alaska 99709","U-Pick Farm, Orchard","Apples, Vegetables",,,,
Oak Grove Farms,846 Fisher Rd,Mechanicsburg,PA,,"846 Fisher Rd, Mechanicsburg, Pennsylvania 17055","U-Pick Farm, Orchard","Peas, Raspberries, Strawberries",,,,
Oak Hill Produce,,,,,,"U-Pick Farm, Orchard","Blueberries, Strawberries, Tomatoes, Vegetables",,,,
Oakridge Farms,125 County Rd CB,Neenah,WI,54901,"125 County Rd CB, Neenah, WI 54901",,"Raspberries, Strawberries",,,,
Oakview Orchard,,,,,,"U-Pick Farm, Orchard",Blueberries,,,,
Ochs Orchard,,,,,,"U-Pick Farm, Orchard","Apples, Blackberries, Blueberries, Cherries, Peaches, Pumpkins, Raspberries, Strawberries, Tomatoes",,,,
Orchard & Company,7255 US Hwy 42,Plain City,OH,,"7255 US Hwy 42, Plain City, Ohio 43064","U-Pick Farm, Orchard",Apples,,,,
Orchard Hill Farm Market,2934 68th St SE,Caledonia,MI,,"2934 68th St SE, Caledonia, Michigan 49316",Pre-Picked Only,Ready Picked Only,,,,
Orchard Market,31 & Free Soil Rd.,Free Soil,MI,,"31 & Free Soil Rd., Free Soil, Michigan 49411",Pre-Picked Only,Ready Picked Only,,,,
Oregon Trail Farm,,,,,,"U-Pick Farm, Orchard","Blackberries, Blueberries, Raspberries",,,,
Orr’s Farm Market,682 Orr Drive,Martinsburg,VA,,"682 Orr Drive, Martinsburg, West Virginia 25403","U-Pick Farm, Orchard","Blackberries, Blueberries, Cherries, Flowers, Grapes, Pumpkins, Raspberries, Strawberries",,,,
Outback Farm,,,,,,"U-Pick Farm, Orchard",Blueberries,,,,
Outhouse Orchards,,,,,,"U-Pick Farm, Orchard","Apples, Pumpkins",,,,
Overhiser Orchards,6405 109th Ave.,South Haven,MI,,"6405 109th Ave., South Haven, Michigan 49090","U-Pick Farm, Orchard","Apples, Cherries, Peaches, Pears, Plums",,,,
Owasso Christmas Tree & Berry Farm,11039 N 129th East Ave,Owasso,OK,,"11039 N 129th East Ave, Owasso, Oklahoma 74055","U-Pick Farm, Orchard","Blackberries, Blueberries",,,,
Owl’s Head Blueberry Farm,263 Blueberry Farm Rd,Richmond,VT,,"263 Blueberry Farm Rd, Richmond, Vermont 05477","U-Pick Farm, Orchard",Blueberries,,,,
Ozark Mountain Orchard,4564 S Campbell Ave.,Springfield,MO,,"4564 S Campbell Ave., Springfield, Missouri 65810",Pre-Picked Only,Ready Picked Only,,,,
Ozark Mountain Orchard,2949 Pleasant View Rd,Highlandville,MO,65669,"2949 Pleasant View Rd, Highlandville, MO 65669","U-Pick Farm, Orchard",Blueberries,,,,
Page Farms,6100 Mount Herman Rd,Raleigh,NC,,"6100 Mount Herman Rd, Raleigh, North Carolina 27617","U-Pick Farm, Orchard","Pumpkins, Strawberries",,,,
Pallman Farms,1511 Summit Lake Road,Clarks Summit,PA,,"1511 Summit Lake Road, Clarks Summit, Pennsylvania 18411","U-Pick Farm, Orchard",Strawberries,,,,
Papa’s Pumpkin Patch,5001 Fernwood Dr,Bismarck,ND,,"5001 Fernwood Dr, Bismarck, North Dakota 58503","U-Pick Farm, Orchard",Pumpkins,,,,
Parlee Farms,95 Farwell Rd,Tyngsboro,MA,,"95 Farwell Rd, Tyngsboro, Massachusetts 01879","U-Pick Farm, Orchard","Apples, Blueberries, Cherries, Flowers, Peaches, Pumpkins, Strawberries",,,,
Pat Montoya’s Family Orchard,249 County Road 59,Canova,NM,,"249 County Road 59, Canova, New Mexico 87582","U-Pick Farm, Orchard",Apples,,,,
Patchwork Berry Farm,1575 Old Lystra Rd,Chapel Hill,NC,,"1575 Old Lystra Rd, Chapel Hill, North Carolina 27517","U-Pick Farm, Orchard",Blueberries,,,,
Patrie’s Raspberries,4250 2nd Street NE,Bowden,ND,,"4250 2nd Street NE, Bowden, North Dakota 58418","U-Pick Farm, Orchard",Raspberries,,,,
Patterson Fruit Farm,11414 Caves Road,Chesterland,OH,,"11414 Caves Road, Chesterland, Ohio 44026","U-Pick Farm, Orchard",Apples,,,,
Patty’s Berries & Bunches,,,,,,"U-Pick Farm, Orchard","Blackberries, Blueberries, Raspberries, Strawberries",,,,
Pearl Creek Farm,849 Wolverine Lane,Fairbanks,AK,,"849 Wolverine Lane, Fairbanks, Alaska 99709","U-Pick Farm, Orchard",Raspberries,,,,
Pecan Hill Farms U-Pick Berries,19470 Highway 18,Raymond,MS,,"19470 Highway 18, Raymond, Mississippi 39154","U-Pick Farm, Orchard","Blackberries, Blueberries, Peaches",,,,
Peck & Bushel Organic Fruit,,,,,,"U-Pick Farm, Orchard",Apples,,,,
Penton Farms,3358 County Road 59,Verbena,AL,,"3358 County Road 59, Verbena, Alabama 36091","U-Pick Farm, Orchard","Pumpkins, Strawberries",,,,
Perry’s Berries,325 East 1600 South,Mapleton,UT,,"325 East 1600 South, Mapleton, Utah 84664","U-Pick Farm, Orchard",Raspberries,,,,
Petals & Leaves,1930 Moe Rd,Ellensburg,WA,98926,"1930 Moe Rd, Ellensburg, WA 98926","U-Pick Farm, Orchard",Cut Flowers,,,,
Phil’s Berry Farm,13955 SW 248th Street,Homestead,FL,,"13955 SW 248th Street, Homestead, Florida 33032","U-Pick Farm, Orchard",Strawberries,,,,
Phillips Farms,290 Church Road,Milford,NJ,,"290 Church Road, Milford, New Jersey 08848","U-Pick Farm, Orchard","Blackberries, Blueberries, Peaches, Raspberries, Strawberries",,,,
Picha’s Berry Farm,6502 52nd Street East,Puyallup,WA,,"6502 52nd Street East, Puyallup, Washington 98371","U-Pick Farm, Orchard","Blackberries, Raspberries, Strawberries",,,,
Pick-It Fresh Farm,,,,,,"U-Pick Farm, Orchard","Blackberries, Blueberries, Strawberries, Vegetables",,,,
Pietree Orchard,803 Waterford Rd,Sweden,ME,,"803 Waterford Rd, Sweden, Maine 04040","U-Pick Farm, Orchard","Apples, Blueberries, Pumpkins, Strawberries",,,,
Pine Tree Apple Orchard,450 Apple Orchard Rd,White Bear Lake,MN,,"450 Apple Orchard Rd, White Bear Lake, Minnesota 55110","U-Pick Farm, Orchard","Apples, Strawberries",,,,
Pippin Apple Orchard,751 Pippin Orchard Rd,Cranston,,,"751 Pippin Orchard Rd, Cranston, 1037 02921","U-Pick Farm, Orchard",Apples,,,,
Pitts Cherry Farm,,,,,,"U-Pick Farm, Orchard",Cherries,,,,
Pleasant Valley Orchard,17325 Pleasant Valley Road,Shafer,MN,,"17325 Pleasant Valley Road, Shafer, Minnesota 55074","U-Pick Farm, Orchard","Apples, Pumpkins, Strawberries",,,,
Plow Creek Farm,,,,,,"U-Pick Farm, Orchard","Blackberries, Blueberries, Raspberries, Strawberries",,,,
Pochedly Farms,,,,,,"U-Pick Farm, Orchard",Strawberries,,,,
Pome on the Range Orchards & Winery,2050 Idaho Road,Williamsburg,ID,,"2050 Idaho Road, Williamsburg, Kansas 66095",Pre-Picked Only,Ready Picked Only,,,,
Poms To You,200 S Moapa Valley Blvd.,Overton,NV,89040,"200 S Moapa Valley Blvd., Overton, NV 89040","Farm MarketSchool Field TripsU-Pick Farm, Orchard",Pomegranates,,,,
Pope Farm & Apple Orchard,,,,,,"U-Pick Farm, Orchard",Apples,,,,
Porter’s Patch,4314 State Hwy 156,Bonduel,WI,,"4314 State Hwy 156, Bonduel, Wisconsin 54107","U-Pick Farm, Orchard","Raspberries, Strawberries",,,,
Potter Road Raspberries,282 E. Potter Rd.,Traverse City,MI,,"282 E. Potter Rd., Traverse City, Michigan 49686","U-Pick Farm, Orchard",Raspberries,,,,
Prairie Blush Orchards,,,,,,"U-Pick Farm, Orchard","Apples, Pumpkins",,,,
Prairie Hill Blueberry Farm,,,,,,"U-Pick Farm, Orchard",Blueberries,,,,
Prairie Sage Flower Farm,321 Beall Mtn Rd,Longview,TX,75604,"321 Beall Mtn Rd, Longview , TX 75604","Picnic AreaU-Pick Farm, Orchard","Cut Flowers, Flowers",,,,
Pratts Orchard,,,,,,"U-Pick Farm, Orchard","Apples, Peaches",,,,
Pride of Neola Orchards,5976 Neola Hwy,Neola,UT,,"5976 Neola Hwy, Neola, Utah 84066","U-Pick Farm, Orchard","Apples, Nectarines, Peaches, Plums",,,,
Pyrah’s Pioneer Peak Farm,,,,,,"U-Pick Farm, Orchard","Raspberries, Strawberries, Vegetables",,,,
R4 Farm – Richtsmeier,339 Wells Lee Road,Elora,TN,37328,"339 Wells Lee Road, Elora , TN 37328","Picnic AreaSchool Field TripsU-Pick Farm, Orchard",Blackberries,,,,
Rainbow Farms,2464 Townline Rd,Madison,OH,,"2464 Townline Rd, Madison, Ohio 44057","U-Pick Farm, Orchard",Strawberries,,,,
Raising Cane Ranch,5719 Riverview Rd,Snohomish,WA,,"5719 Riverview Rd, Snohomish, Washington 98290","U-Pick Farm, Orchard",Raspberries,,,,
Raspberry deLight Farms,222 N Hidden Valley Road,Shoshoni,WY,,"222 N Hidden Valley Road, Shoshoni, Wyoming 82649","U-Pick Farm, Orchard",Raspberries,,,,
Raspberry Patch,,,,,,"U-Pick Farm, Orchard",Raspberries,,,,
Ray French Orchard,921 Harvest Lane Pr NE,Richard,WA,,"921 Harvest Lane Pr NE, Richard, Washington 99352","U-Pick Farm, Orchard","Apples, Cherries, Nectarines, Peaches",,,,
Red Apple Barn,3379 Tails Creek Rd,Ellijay,,,"3379 Tails Creek Rd, Ellijay, 1008 30540","U-Pick Farm, Orchard","Apples, Pumpkins",,,,
Red Barn & Berry Farm,16305 57th St SE,Kindred,ND,,"16305 57th St SE, Kindred, North Dakota 58077","U-Pick Farm, Orchard",Raspberries,,,,
Red Canoe Farms,28405 W Highway 53,Hauser,ID,83854,"28405 W Highway 53, Hauser, ID 83854","U-Pick Farm, Orchard",Blueberries,,,,
Red Dog Ridge Farms,1267 Burem Road,Rogersville,TN,,"1267 Burem Road, Rogersville, Tennessee 37857","U-Pick Farm, Orchard","Apples, Blackberries, Blueberries, Peaches, Raspberries",,,,
Red Wagon Farm,16081 East River Rd (Rt 252),Columbia Station,OH,,"16081 East River Rd (Rt 252), Columbia Station, Ohio 44028","U-Pick Farm, Orchard","Pumpkins, Strawberries",,,,
Reed Valley Orchard,239 Lail Lane,Paris,KY,,"239 Lail Lane, Paris, Kentucky 40361","U-Pick Farm, Orchard","Apples, Blueberries, Peaches, Pears, Pumpkins, Raspberries",,,,
Reeves Farms,,,,,,"U-Pick Farm, Orchard",Blueberries,,,,
Regier Orchard,12249 NW Meadowlark Rd,Whitewater,KS,,"12249 NW Meadowlark Rd, Whitewater, Kansas 67154","U-Pick Farm, Orchard","Apples, Cherries, Peaches",,,,
Remlinger Farms,32610 NE 32nd St,Carnation,WA,,"32610 NE 32nd St, Carnation, Washington 98014","U-Pick Farm, Orchard",Pumpkins,,,,
Renee’s Berry Garden,1265 Will Baker Rd.,London,AR,,"1265 Will Baker Rd., London, Arkansas 72847","U-Pick Farm, Orchard",Blueberries,,,,
Richardson Farm,4000 Bishop Rd,Emmett,ID,,"4000 Bishop Rd, Emmett, Idaho 83617","U-Pick Farm, Orchard",Strawberries,,,,
RichCrest Farms,2768 N. Evelyn Lane,Cochise,AZ,,"2768 N. Evelyn Lane, Cochise, Arizona 85606","U-Pick Farm, Orchard",Vegetables,,,,
Ricker Hill Orchards,295 Buckfield Road (Rt 117),Turner,ME,,"295 Buckfield Road (Rt 117), Turner, Maine 04282","U-Pick Farm, Orchard",Apples,,,,
Ridemore Farm,22154 John T Prats Rd,Covington,,,"22154 John T Prats Rd, Covington, 0 70435","U-Pick Farm, Orchard","Blackberries, Blueberries, Figs, Vegetables",,,,
Ridgefield Farm & Orchard,414 Kidwiler Rd,Harpers Ferry,VA,,"414 Kidwiler Rd, Harpers Ferry, West Virginia 25425","U-Pick Farm, Orchard",Pumpkins,,,,
Ridgeview Farm,5488 Kinsman Rd (SR 87),Middlefield,OH,,"5488 Kinsman Rd (SR 87), Middlefield, Ohio 44062","U-Pick Farm, Orchard",Strawberries,,,,
Riggs Family Orchard,18350 Orchard Lane,Spiro,OK,,"18350 Orchard Lane, Spiro, Oklahoma 74959",Pre-Picked Only,Ready Picked Only,,,,
Riley Creek Blueberry Farm,,,,,,"U-Pick Farm, Orchard",Blueberries,,,,
Riley’s Apple Farm,12201 S. Oak Glen Road,Yucaipa,CA,,"12201 S. Oak Glen Road, Yucaipa, California 92399","U-Pick Farm, Orchard","Apples, Blackberries, Pumpkins, Raspberries",,,,
Rittman Orchards & Farm Market,13548 Mt. Eaton Rd. N.,Doylestown,OH,,"13548 Mt. Eaton Rd. N., Doylestown, Ohio 44230","U-Pick Farm, Orchard",Apples,,,,
Riverbound Farm,2175 53rd St.,Mandan,ND,,"2175 53rd St., Mandan, North Dakota 58554","U-Pick Farm, Orchard",Pumpkins,,,,
RiverView Farm,141 River Road,Plainfield,NH,,"141 River Road, Plainfield, New Hampshire 03781","U-Pick Farm, Orchard","Apples, Blueberries, Currants, Pumpkins, Raspberries",,,,
Roberts Family Blueberry Farm,5517 Clarksbridge Rd,Clermont,GA,,"5517 Clarksbridge Rd, Clermont, Georgia 30527","U-Pick Farm, Orchard",Blueberries,,,,
Roberts Family Farm,222 South Street,Chesterfield,MA,,"222 South Street, Chesterfield, Massachusetts 01012","U-Pick Farm, Orchard",Blueberries,,,,
Roberts Family Farm,125 Kennedy Road,Guston,KY,,"125 Kennedy Road, Guston, Kentucky 40142","U-Pick Farm, Orchard",Blackberries,,,,
Robinette's,3142 4 Mile Rd NE,Grand Rapids,MI,49525,"3142 4 Mile Rd NE, Grand Rapids, MI 49525","U-Pick Farm, Orchard","Apples, Cherries",,,4 miles,
Roca Berry Farm,16531 S 38th St,Roca,NE,,"16531 S 38th St, Roca, Nebraska 68430","U-Pick Farm, Orchard","Pumpkins, Strawberries",,,,
Rocky Creek Farms,34297 Frontage Rd,Bozeman,MT,,"34297 Frontage Rd, Bozeman, Montana 59715","U-Pick Farm, Orchard",Apples,,,,
Rocky Gardens,,,,,,"U-Pick Farm, Orchard","Blueberries, Pumpkins",,,,
Rocky Point Farm,130 Rocky Point Ave,Warwick,RI,,"130 Rocky Point Ave, Warwick, Rhode Island 02889","U-Pick Farm, Orchard",Blueberries,,,,
Rocky Top Fruit Farm,,,,,,"Honey BeesU-Pick Farm, Orchard",Raspberries,,,,
Roehrborn’s Berry Patch,10389 Pine Lane,Marshfield,WI,,"10389 Pine Lane, Marshfield, Wisconsin 54449","U-Pick Farm, Orchard",Strawberries,,,,
Roger’s Farm,3831 NW 156th Ave,Gainsville,FL,,"3831 NW 156th Ave, Gainsville, Florida 32609","U-Pick Farm, Orchard",Strawberries,,,,
Rooney’s Front Porch Farm,8611 47th Drive,Live Oak,FL,32060,"8611 47th Drive, Live Oak, FL 32060","U-Pick Farm, Orchard","Blackberries, Blueberries",,,,
Rose’s Berry Farm,295 Matson Hill Rd,South Glastonbury,CT,,"295 Matson Hill Rd, South Glastonbury, Connecticut 06073","U-Pick Farm, Orchard","Apples, Blackberries, Blueberries, Pumpkins, Raspberries, Strawberries",,,,
Rosey’s Berry Farm,,,,,,"U-Pick Farm, Orchard",Strawberries,,,,
Ross Orchards,111 North St,Fromberg,MT,,"111 North St, Fromberg, Montana 59029","U-Pick Farm, Orchard",Apples,,,,
Royal Oak Farm Orchard,15908 Hebron Rd.,Harvard,IL,60033,"15908 Hebron Rd., Harvard, IL 60033","U-Pick Farm, Orchard",Squash,,,,
Rush River Produce,4098 200th Ave.,Maiden Rock,WI,,"4098 200th Ave., Maiden Rock, Wisconsin 54750","U-Pick Farm, Orchard","Blueberries, Currants, Gooseberries",,,,
Salisbury Farm,11 Peck Hill Rd,Johnston,RI,,"11 Peck Hill Rd, Johnston, Rhode Island 02919","U-Pick Farm, Orchard","Pumpkins, Raspberries, Strawberries, Vegetables",,,,
Salman Raspberry Ranch,,,,,,"U-Pick Farm, Orchard",Raspberries,,,,
Sam & Philly’s,16790 SW 177 Ave,Miami,FL,,"16790 SW 177 Ave, Miami, Florida 33187","U-Pick Farm, Orchard",Strawberries,,,,
Samascott Orchards,,,,,,"U-Pick Farm, Orchard",Raspberries,,,,
Sanderson Gardens,,,,,,"U-Pick Farm, Orchard","Asparagus, Horseraddish, Pumpkins, Raspberries, Rhubarb, Strawberries",,,,
Schartner Farms,,,,,,"U-Pick Farm, Orchard",Strawberries,,,,
Schnepf Farms,24610 S. Rittenhouse Road,Queen Creek,AZ,,"24610 S. Rittenhouse Road, Queen Creek, Arizona 85142","U-Pick Farm, Orchard","Peaches, Vegetables",,,,
Schuh Farms,15565 State Rte. 536,Mount Vernon,WA,,"15565 State Rte. 536, Mount Vernon, Washington 98273","U-Pick Farm, Orchard","Raspberries, Strawberries, Tayberries",,,,
Schultz Fruitridge Farm,60139 County Road 652,Mattawan,MI,,"60139 County Road 652, Mattawan, Michigan 49071","U-Pick Farm, Orchard",Apples,,,,
Schwartz Orchard,,,,,,"U-Pick Farm, Orchard","Apples, Pumpkins",,,,
Schweizer Orchards,5455 SE State Route Ff,Saint Joseph,MO,,"5455 SE State Route Ff, Saint Joseph, Missouri 64507","U-Pick Farm, Orchard","Apples, Blackberries, Blueberries, Peaches, Pumpkins, Raspberries",,,,
Scott Farm,707 Kipling Rd,Dummerston,VT,,"707 Kipling Rd, Dummerston, Vermont 05301","U-Pick Farm, Orchard",Apples,,,,
Sentenac Ranch,3515 Highway 78,Julian,CA,92036,"3515 Highway 78, Julian, CA 92036","Farm MarketFestivalPicnic AreaPlaygroundU-Pick Farm, Orchard",Apples,,,,
Serenity Acrez Co.,630 Plemons Rd,Crandall,GA,30711,"630 Plemons Rd, Crandall, GA 30711","Farm MarketPicnic AreaPlaygroundU-Pick Farm, OrchardWedding VenueWinery","Grapes, Muscadines",,,,
Shady Oaks Farm,5790 Manilla Creek Road,Poca,VA,,"5790 Manilla Creek Road, Poca, West Virginia 25159","U-Pick Farm, Orchard","Blueberries, Raspberries",,,,
Sheepscot General,98 Townhouse Rd,Whitefield,ME,,"98 Townhouse Rd, Whitefield, Maine 04353","U-Pick Farm, Orchard",Strawberries,,,,
Shenk’s Berry Farm,911 Disston View Drive,Lititz,PA,,"911 Disston View Drive, Lititz, Pennsylvania 17543","U-Pick Farm, Orchard","Raspberries, Strawberries",,,,
Sherwood Orchards,23995 SW Pacific Highway,Sherwood,OR,,"23995 SW Pacific Highway, Sherwood, Oregon 97140","U-Pick Farm, Orchard","Apples, Cherries, Peaches, Pears, Persimmons, Plums, Quince",,,,
Shiloh Lea Farm,3716 Mahan Corner Rd,Marydel,DE,,"3716 Mahan Corner Rd, Marydel, Delaware 19964","U-Pick Farm, Orchard",Blueberries,,,,
Shlagel Farms,12850 Shlagel Rd.,Waldorf,MD,,"12850 Shlagel Rd., Waldorf, Maryland 20601","U-Pick Farm, Orchard","Pumpkins, Strawberries",,,,
Shockley Springs Blueberry Farm,7097 Old River Rd.,Baker,,,"7097 Old River Rd., Baker, 1007 32531","U-Pick Farm, Orchard",Blueberries,,,,
Showcase of Citrus,5010 US Highway 27,Clermont,,,"5010 US Highway 27, Clermont, 0 34714","U-Pick Farm, Orchard",Citrus,,,,
Shuqualak Farms,232 Shuqualak Farms Rd,Frierson,LA,,"232 Shuqualak Farms Rd, Frierson, Louisiana 71027","U-Pick Farm, Orchard",Blueberries,,,,
Sibley Orchards & Cider Mill,3717 Buckner Tarsney Rd,Sibley,MO,,"3717 Buckner Tarsney Rd, Sibley, Missouri 64088",Pre-Picked Only,Ready Picked Only,,,,
Sietsema’s Orchards & Cider Mill,8540 2 Mile Rd.,Ada,MI,,"8540 2 Mile Rd., Ada, Michigan 49301",Pre-Picked Only,Ready Picked Only,,,2 miles,
Skytop Orchard,1193 Pinnacle Mountain Rd,Zirconia,NC,,"1193 Pinnacle Mountain Rd, Zirconia, North Carolina 28790","U-Pick Farm, Orchard","Apples, Cherries",,,,
Smith Farms,1465 N County Road 800 W,Frankfort,IN,,"1465 N County Road 800 W, Frankfort, Indiana 46041","U-Pick Farm, Orchard","Apples, Peaches, Pumpkins, Strawberries",,,,
Solebury Orchards,3325 Creamery Rd.,New Hope,PA,,"3325 Creamery Rd., New Hope, Pennsylvania 18938","U-Pick Farm, Orchard","Apples, Blueberries, Peaches",,,,
SonHarvest Seasons,21 Two Valley Rd.,Riverton,WY,,"21 Two Valley Rd., Riverton, Wyoming 82501","U-Pick Farm, Orchard","Pumpkins, Raspberries",,,,
Sorghum Mill Christmas Tree & Blackberry Farm,7121 Midwest Lane,Edmond,OK,,"7121 Midwest Lane, Edmond, Oklahoma 73034","U-Pick Farm, Orchard",Blackberries,,,7121 miles,
South Coast Farms,32701 Alopaz St,San Juan Capistrano,CA,,"32701 Alopaz St, San Juan Capistrano, California 92675","U-Pick Farm, Orchard",Strawberries,,,,
South Moon Farms,15912 S County Rd 335,Hawthorne,FL,32640,"15912 S County Rd 335, Hawthorne , FL 32640","U-Pick Farm, Orchard",Blueberries,,,,
Southern Belle Farm,1658 Turner Church Rd,McDonough,GA,,"1658 Turner Church Rd, McDonough, Georgia 30252","U-Pick Farm, Orchard",Strawberries,,,,
Southern Hill Farms,16651 Schofield Road,Clermont,FL,,"16651 Schofield Road, Clermont, Florida 34714","U-Pick Farm, Orchard",Blueberries,,,,
Spencer Farm,7177 E 161st Street,Noblesville,IN,46062,"7177 E 161st Street, Noblesville, IN 46062","U-Pick Farm, Orchard","Asparagus, Black Raspberries, Blueberries, Grapes, Pumpkins, Raspberries, Red Raspberries, Squash, Strawberries",,,,
Spiller Farm,85 Spiller Farm Lane,Wells,ME,04090,"85 Spiller Farm Lane, Wells, ME 04090","U-Pick Farm, Orchard",Squash,,,,
Stade’s Farm Market,,,,,,"U-Pick Farm, Orchard","Apples, Green Beans, Pumpkins, Raspberries, Strawberries, Sugar Snap Peas, Tomatoes",,,,
Stan’s Berry Patch,,,,,,"U-Pick Farm, Orchard",Blueberries,,,,
Stanton Cherries,6088 West 10000 South,Payson,UT,,"6088 West 10000 South, Payson, Utah 84651","U-Pick Farm, Orchard",Cherries,,,,
Star Orchard,,,,,,"U-Pick Farm, Orchard",Apples,,,,
Starvish Farm,,,,,,"U-Pick Farm, Orchard",Strawberries,,,,
Stateline Blueberries,9957  North Frontage Road,Michigan City,IN,46360,"9957  North Frontage Road, Michigan City, IN 46360","U-Pick Farm, Orchard",Blueberries,,,,
Steep Hill Farm,26 Clyde Wells Road,Fayette,ME,,"26 Clyde Wells Road, Fayette, Maine 04349","U-Pick Farm, Orchard","Blueberries, Raspberries",,,,
Steffens Orchard Market,4344 13 Mile Rd NW,Sparta,MI,,"4344 13 Mile Rd NW, Sparta, Michigan 49345","U-Pick Farm, Orchard",Apples,,,13 miles,
Stepp’s Hillcrest Orchard,170 Stepp Orchard Dr,Hendersonville,NC,,"170 Stepp Orchard Dr, Hendersonville, North Carolina 28792","U-Pick Farm, Orchard","Apples, Pumpkins",,,,
Stewart Farms,6600 Highway 92,Enoree,SC,,"6600 Highway 92, Enoree, South Carolina 29335","U-Pick Farm, Orchard","Blackberries, Pumpkins, Strawberries, Vegetables",,,,
Stone Brook Hill Farm,128 Glidden Road,Gilford,NH,,"128 Glidden Road, Gilford, New Hampshire 03249","U-Pick Farm, Orchard","Apples, Blueberries",,,,
Stover’s U-Pic,,,,,,"U-Pick Farm, Orchard","Apples, Apricots, Blackberries, Blueberries, Cherries, Grapes, Peaches, Pumpkins, Raspberries, Strawberries",,,,
Straight River Farm,3733 220th St E,Faribault,,,"3733 220th St E, Faribault, 1021 55021","U-Pick Farm, Orchard","Blueberries, Raspberries, Strawberries",,,,
Strawberry Basket,12591 Aetna Ave NE,Monticello,MN,,"12591 Aetna Ave NE, Monticello, Minnesota 55362","U-Pick Farm, Orchard","Blueberries, Raspberries, Strawberries",,,,
Stroik’s Lake Du Bay Berry Farm,1836 County Rd. C,Mosinee,WI,,"1836 County Rd. C, Mosinee, Wisconsin 54455","U-Pick Farm, Orchard","Raspberries, Strawberries",,,,
Strong Tower Vineyard,17810 Forge Drive,Spring Hill,FL,,"17810 Forge Drive, Spring Hill, Florida 34610","U-Pick Farm, Orchard",Grapes,,,,
Stults Farm,146 Cranbury Neck Rd,Plainsboro Township,NJ,,"146 Cranbury Neck Rd, Plainsboro Township, New Jersey 08536","U-Pick Farm, Orchard",Pumpkins,,,,
Stutzman Ranch,2226 Easy St,Wenatchee,WA,,"2226 Easy St, Wenatchee, Washington 98801","U-Pick Farm, Orchard","Apples, Cherries, Grapes, Nectarines, Peaches, Pears",,,,
Sugartown Strawberries,650 Sugartown Rd,Malvern,PA,,"650 Sugartown Rd, Malvern, Pennsylvania 19355","U-Pick Farm, Orchard",Strawberries,,,,
Sunburst Blueberry Farm,44 Rawson Street,Uxbridge,MA,01569,"44 Rawson Street, Uxbridge, MA 01569","U-Pick Farm, Orchard",Blueberries,,,,
Sunlight Farms LLC,30 Loomis Rd,Prosser,WA,99350,"30 Loomis Rd, Prosser, WA 99350","U-Pick Farm, Orchard",Blueberries,,,,
Sunmist Farm,26700 Avenida Del Oro,Temecula,CA,92590,"26700 Avenida Del Oro, Temecula, CA 92590","U-Pick Farm, OrchardWedding Venue","Blueberries, Lemons, Tangerines",,,,
Sunnycrest Farm,59 High Range Road,Londonderry,NH,03053,"59 High Range Road, Londonderry, NH 03053","U-Pick Farm, Orchard","Apples, Blueberries, Cherries, Flowers, Peaches, Pumpkins, Raspberries, Strawberries",,,,
Sunnyvale Pecan Orchard,137  Rebecca Rd,Sunnyvale,TX,,"137  Rebecca Rd, Sunnyvale, Texas 75182","U-Pick Farm, Orchard",Pecans,,,,
Sunshine Acres Lavender Farm,2471 Moore Saur Rd,Morrow,OH,45152,"2471 Moore Saur Rd, Morrow, OH 45152","Farm MarketHoney BeesPicnic AreaU-Pick Farm, Orchard",Lavender,,,,
Sunshine Farms,11728 County Road 37,Clanton,AL,,"11728 County Road 37, Clanton, Alabama 35045","U-Pick Farm, Orchard",Strawberries,,,,
Sunshine Valley Farms,8125 Ad Highway,Rogersville,MO,,"8125 Ad Highway, Rogersville, Missouri 65742","U-Pick Farm, Orchard","Apples, Blackberries, Blueberries, Peaches, Raspberries",,,,
Suzanne’s Fruit Farm,77 Peach Court,Hampton,AR,,"77 Peach Court, Hampton, Arkansas 71744","U-Pick Farm, Orchard","Blackberries, Blueberries, Grapes, Peaches, Plums, Pumpkins",,,,
Sweet Berries & Brambles,309 NE 120 Road,Harper,KS,,"309 NE 120 Road, Harper, Kansas 67058","U-Pick Farm, Orchard","Blackberries, Strawberries",,,,
Sweet Berry Farm,,,,,,"U-Pick Farm, Orchard","Pumpkins, Strawberries",,,,
Sweet Berry Farm,915 Mitchell's Lane,Middletown,RI,,"915 Mitchell's Lane, Middletown, Rhode Island 02842","U-Pick Farm, Orchard","Apples, Blueberries, Raspberries, Strawberries",,,915 miles,
Sweet Pickin’s Pumpkin Patch,512 Kingfisher Lane,Kalispell,MT,,"512 Kingfisher Lane, Kalispell, Montana 59901","U-Pick Farm, Orchard",Pumpkins,,,,
Sweet Season Farm,77 Liberty Rd,Washington,ME,,"77 Liberty Rd, Washington, Maine 04574","U-Pick Farm, Orchard","Blueberries, Pumpkins, Raspberries, Strawberries",,,,
Sweethaven Lavender,2301 Jolly Pond Road,Williamsburg,VA,23188,"2301 Jolly Pond Road, Williamsburg, VA 23188","FestivalPicnic AreaU-Pick Farm, OrchardWedding Venue","Cut Flowers, Herbs",,,,
Tammen Treeberry Farm,,,,,,"U-Pick Farm, Orchard",Blueberries,,,,
Tanaka Farms,5380 3/4 University Dr,Irvine,CA,,"5380 3/4 University Dr, Irvine, California 92612","U-Pick Farm, Orchard","Pumpkins, Strawberries, Vegetables, Watermelons",,,,
Taylor U-Pick Blueberries (Closed For The Season),19755 S. Unger Rd,Beavercreek,OR,97004,"19755 S. Unger Rd, Beavercreek, OR 97004","U-Pick Farm, Orchard",Blueberries,,,,
Terhune Orchards,330 Cold Soil Road,Princeton,NJ,,"330 Cold Soil Road, Princeton, New Jersey 08540","U-Pick Farm, Orchard","Apples, Blackberries, Blueberries, Cherries, Nectarines, Potatoes, Rhubarb, Strawberries, Tomatoes",,,,
Terison Apple Orchard,8 Whitney Rd,Cumberland Center,ME,,"8 Whitney Rd, Cumberland Center, Maine 04021","U-Pick Farm, Orchard",Apples,,,,
TG Farms,1580 NW Hwy 37,Newcastle,OK,,"1580 NW Hwy 37, Newcastle, Oklahoma 73065","U-Pick Farm, Orchard",Blackberries,,,,
The Berry Farm,2966 Hudson Rd.,Fulton,KY,42041,"2966 Hudson Rd., Fulton, KY 42041","U-Pick Farm, Orchard",Strawberries,,,,
The Berry Farmer,10222 Hoot Owl Valley Rd.,Baraboo,WI,,"10222 Hoot Owl Valley Rd., Baraboo, Wisconsin 53913","U-Pick Farm, Orchard","Blueberries, Peas, Strawberries",,,,
The Blueberry House,589 Apple Hill Road,Bennington,VT,05201,"589 Apple Hill Road, Bennington , VT 05201","Picnic AreaSchool Field TripsU-Pick Farm, Orchard",Blueberries,,,,
The Farm as Swan’s Tail,7301 Rivershore Rd,Snohomish,WA,,"7301 Rivershore Rd, Snohomish, Washington 98290","U-Pick Farm, Orchard",Apples,,,,
The Fruit Factory,6162 Airline Rd,Pavo,GA,31778,"6162 Airline Rd, Pavo, GA 31778",Pre-Picked Only,"Apples, Blueberries, Citrus, Grapefruit, Grapes, Kumquats, Lemons, Limes, Muscadines, Oranges, Pecans, Persimmons, Satsumas, Tangerines",,,,
The Little Farmer,9438 Hwy. 151,Malone,WI,,"9438 Hwy. 151, Malone, Wisconsin 53049","U-Pick Farm, Orchard",Pumpkins,,,,
The Orchard,12206 East Hwy 62,Idalou,TX,,"12206 East Hwy 62, Idalou, Texas 79329",Pre-Picked Only,Ready Picked Only,,,,
The Rock Ranch,5020 Barnesville Hwy,The Rock,GA,,"5020 Barnesville Hwy, The Rock, Georgia 30285","U-Pick Farm, Orchard","Blackberries, Grapes, Raspberries, Strawberries",,,,
The Wilson Family Farm,4809 Byrd Lane,College Grove,TN,37046,"4809 Byrd Lane, College Grove, TN 37046","Corn MazeFarm MarketSchool Field TripsU-Pick Farm, OrchardWedding Venue","Cut Flowers, Pumpkins, Strawberries, Vegetables",,,,
Thierbach Orchards & Berry Farm,15885 Orchard Lane,Marthasville,MO,,"15885 Orchard Lane, Marthasville, Missouri 63357","U-Pick Farm, Orchard","Apples, Blackberries, Blueberries, Peaches, Strawberries",,,,
Thompson Strawberry Farm,14000 75th Street,Bristol,WI,,"14000 75th Street, Bristol, Wisconsin 53104","U-Pick Farm, Orchard","Pumpkins, Raspberries, Strawberries",,,,
Thunderbird Berry Farm,32100 E 71st St S,Broken Arrow,OK,,"32100 E 71st St S, Broken Arrow, Oklahoma 74014","U-Pick Farm, Orchard","Blackberries, Blueberries, Raspberries, Strawberries",,,,
Timberlea Farm,705 SW Ringgold St,Boone,IA,,"705 SW Ringgold St, Boone, Iowa 50036","U-Pick Farm, Orchard",Aronia Berries,,,,
Toth Brothers,13007 E. Michigan Ave.,Grass Lake,MI,,"13007 E. Michigan Ave., Grass Lake, Michigan 49240","U-Pick Farm, Orchard",Blueberries,,,,
Trax Farms,528 Trax Road,Finleyville,,,"528 Trax Road, Finleyville,  15332","U-Pick Farm, Orchard","Blueberries, Pumpkins, Strawberries",,,,
Tree-Mendus Fruit,9351 E Eureka Rd,Eau Claire,MI,49111,"9351 E Eureka Rd, Eau Claire, MI 49111","U-Pick Farm, Orchard",Cherries,,,,
Triple B Farms,823 Berry Lane,Monongahela,PA,15063,"823 Berry Lane, Monongahela, PA 15063","BakeryCorn MazeFarm MarketFestivalHoney BeesPetting ZooPlaygroundSchool Field TripsU-Pick Farm, Orchard","Apples, Black Raspberries, Blueberries, Flowers, Peaches, Pumpkins, Raspberries, Red Raspberries, Strawberries",,,,
Truman Ranch II U-Pick Citrus,18800 W Greenway Rd,Surprise,AZ,,"18800 W Greenway Rd, Surprise, Arizona 85388","U-Pick Farm, Orchard",Citrus,,,,
TS Smith & Sons,8887 Redden Road,Bridgeville,DE,,"8887 Redden Road, Bridgeville, Delaware 19933","U-Pick Farm, Orchard","Apples, Nectarines, Peaches, Pumpkins",,,,
Tubbs Berry Farm,1150 S Park Ave W,Twin Falls,ID,,"1150 S Park Ave W, Twin Falls, Idaho 83301","U-Pick Farm, Orchard","Pumpkins, Raspberries, Strawberries",,,,
Tuttle Orchards,,,,,,"U-Pick Farm, Orchard","Apples, Pumpkins",,,,
Tyler’s Rocky Point Orchard,145 E Slope Rd,Emmett,ID,,"145 E Slope Rd, Emmett, Idaho 83617","U-Pick Farm, Orchard","Apples, Apricots, Cherries, Peaches, Plums",,,,
"U-Pick/We-Pick Tomatoes, St. Paul, OR",21002 River Rd. NE,St. Paul,OR,97137,"21002 River Rd. NE, St. Paul, OR 97137","U-Pick Farm, Orchard",Tomatoes,,,,
Ufford Hills Pumpkin Patch,,,,,,"U-Pick Farm, Orchard",Pumpkins,,,,
Uncle Johnny’s U-Pick Farm,18561 Surface Creek Road,Cedaredge,CO,81413,"18561 Surface Creek Road, Cedaredge, CO 81413","U-Pick Farm, Orchard",Squash,,,,
Underwood Family Farms,3370 Sunset Valley Rd,Moorpark,CA,,"3370 Sunset Valley Rd, Moorpark, California 93021","U-Pick Farm, Orchard","Blackberries, Pumpkins, Strawberries, Tomatoes, Vegetables",,,,
Union Orchard,2405 S Highway 75,Union,NE,,"2405 S Highway 75, Union, Nebraska 68455","U-Pick Farm, Orchard","Apples, Pumpkins",,,,
UPick Strawberry Farm,5396 Hahn Road,DeForest,WI,53532,"5396 Hahn Road, DeForest, WI 53532","U-Pick Farm, Orchard","Beans, Broccoli, Cucumbers, Green Beans, Kale, Leafy Greens, Melons, Pumpkins, Squash, Strawberries, Sugar Snap Peas, Tomatoes, Vegetables",,,,
Valley Orchard,,,,,,"U-Pick Farm, Orchard",Apples,,,,
Vandervalk Farm & Winery,25 Lovell St,Mendon,MA,,"25 Lovell St, Mendon, Massachusetts 01756","U-Pick Farm, Orchard",Blueberries,,,,
Vertuccio Farms,4011 S. Power Rd,Mesa,AZ,,"4011 S. Power Rd, Mesa, Arizona 85212","U-Pick Farm, Orchard","Citrus, Watermelons",,,,
Villa del Sol,6989 Elizabeth Lake Road,Leona Valley,CA,,"6989 Elizabeth Lake Road, Leona Valley, California 93551","U-Pick Farm, Orchard",Cherries,,,,
Vine Abiding Farms,,,,,,"U-Pick Farm, Orchard","Apples, Peaches",,,,
Volcan Valley Farm,1284 Julian Orchards Dr,Julian,CA,,"1284 Julian Orchards Dr, Julian, California 92036","U-Pick Farm, Orchard",Apples,,,,
Vollmer Farm,677 NC Hwy 98 E,Bunn,,,"677 NC Hwy 98 E, Bunn, 0 27508","U-Pick Farm, Orchard","Blackberries, Blueberries, Strawberries",,,,
Wagner Farms,5000 Corrales Rd,Corrales,NM,,"5000 Corrales Rd, Corrales, New Mexico 87048","U-Pick Farm, Orchard",Apples,,,,
Wagon Wheel Orchard,15380 Edgerton Road,Gardner,KS,,"15380 Edgerton Road, Gardner, Kansas 66030","U-Pick Farm, Orchard","Apples, Cherries, Peaches, Pears",,,,
Wake Forest Farms,6817 Zebulon Road,Wake Forest,NC,27587,"6817 Zebulon Road, Wake Forest, NC 27587","U-Pick Farm, Orchard",Blueberries,,,,
Walker’s Blueberries,,,,,,"U-Pick Farm, Orchard",Blueberries,,,,
Wallys Farm,495 Pakala St.,Honolulu,HI,96825,"495 Pakala St., Honolulu, HI 96825","U-Pick Farm, Orchard","Beans, Beets, Carrots, Citrus, Collard, Eggplant, Figs, Garlic, Green Beans, Herbs, Kale, Leafy Greens, Lemons, Limes, Oranges, Peas, Peppers, Potatoes, Rhubarb, Sugar Snap Peas, Swiss Chard, Turnip Greens, Vegetables",,,,
Walnut Drive Gardens,2129 Randolph Rd,Mogadore,OH,,"2129 Randolph Rd, Mogadore, Ohio 44260","U-Pick Farm, Orchard","Peppers, Raspberries, Strawberries, Tomatoes",,,,
Walvoord’s Berry Farm,2160 Smiles Road,Oostburg,WI,,"2160 Smiles Road, Oostburg, Wisconsin 53070","U-Pick Farm, Orchard",Strawberries,,,,
Warbington Farms,5555 Crow Road,Cumming,GA,,"5555 Crow Road, Cumming, Georgia 30041","U-Pick Farm, Orchard","Pumpkins, Strawberries",,,,
Ward’s Berry Farm,614 South Main St,Sharon,MA,,"614 South Main St, Sharon, Massachusetts 02067","U-Pick Farm, Orchard","Blueberries, Pumpkins, Strawberries",,,,
Washington Farms,5691 Hog Mountain Rd,Bogart,GA,,"5691 Hog Mountain Rd, Bogart, Georgia 30622","U-Pick Farm, Orchard","Blackberries, Blueberries, Pumpkins, Strawberries",,,,
Weaver’s Berry Land Farm,2252 Hwy 16 West,Jackson,GA,,"2252 Hwy 16 West, Jackson, Georgia 30233","U-Pick Farm, Orchard","Blackberries, Blueberries, Raspberries",,,,
Webb Ranch,2720 Alpine Road,Portola Valley,,,"2720 Alpine Road, Portola Valley, 1003 94028","U-Pick Farm, Orchard","Blackberries, Raspberries",,,,
Webers PeachBerry Farm,11409 Harford Road,Glen Arm,MD,21057,"11409 Harford Road, Glen Arm, MD 21057","U-Pick Farm, Orchard","Apples, Black Raspberries, Blackberries, Blueberries, Cut Flowers, Peaches, Strawberries",,,,
Wegmeyer Farms,38299 Hughesville Road,Hamilton,VA,,"38299 Hughesville Road, Hamilton, Virginia 20158","U-Pick Farm, Orchard","Pumpkins, Strawberries",,,,
Wellsberry Farm,416 E 7th Street,Wellsville,KS,,"416 E 7th Street, Wellsville, Kansas 66092","U-Pick Farm, Orchard","Blackberries, Raspberries",,,,
Wenninghoff’s Pumpkin Patch,6707 Wenninghoff Rd,Omaha,NE,,"6707 Wenninghoff Rd, Omaha, Nebraska 68122","U-Pick Farm, Orchard",Pumpkins,,,,
West Orchards,3034 N. Ridge Rd. (SR 20),Perry,OH,,"3034 N. Ridge Rd. (SR 20), Perry, Ohio 44081","U-Pick Farm, Orchard","Sour Cherries, Strawberries",,,,
Westmoreland Berry Farm,1235 Berry Farm Lane,Colonial Beach,VA,,"1235 Berry Farm Lane, Colonial Beach, Virginia 22443","U-Pick Farm, Orchard","Blackberries, Blueberries, Raspberries, Strawberries",,,,
Weston Red Barn Farm,16300 Wilkerson Road,Weston,MO,,"16300 Wilkerson Road, Weston, Missouri 64098","U-Pick Farm, Orchard","Apples, Pumpkins",,,,
Westview Orchards,,,,,,"U-Pick Farm, Orchard","Apples, Cherries, Peaches, Pumpkins, Strawberries",,,,
Westward Orchards,178 Mass Ave,Harvard,MA,,"178 Mass Ave, Harvard, Massachusetts 01451","U-Pick Farm, Orchard","Apples, Blueberries, Nectarines, Peaches, Pears, Plums, Pumpkins",,,,
White Oak Farm,1700 Brownstone Road,Renick,VA,,"1700 Brownstone Road, Renick, West Virginia 24966","U-Pick Farm, Orchard",Blueberries,,,,
Whittier Fruit Farm,,,,,,"U-Pick Farm, Orchard","Apples, Blueberries, Cherries, Plums, Pumpkins",,,,
Wild Berry Farm,905 Crawford Rd,Sadler,TX,,"905 Crawford Rd, Sadler, Texas 76264","U-Pick Farm, Orchard","Blackberries, Blueberries",,,,
Wild Rose Strawberry Farm,7645 N 429 Rd,Adair,OK,,"7645 N 429 Rd, Adair, Oklahoma 74330","U-Pick Farm, Orchard",Strawberries,,,,
Wild Things Farm,700 Beaty Ave,Pocola,,,"700 Beaty Ave, Pocola, 0 74902","U-Pick Farm, Orchard","Blackberries, Blueberries, Strawberries",,,,
Wildwood Berry Farm,2977 Mad Tom Road,East Dorset,,,"2977 Mad Tom Road, East Dorset, 1043 05253","U-Pick Farm, Orchard","Blueberries, Raspberries",,,,
Wilfert Farms,7528 Manitou Drive,Two Rivers,WI,,"7528 Manitou Drive, Two Rivers, Wisconsin 54241","U-Pick Farm, Orchard",Pumpkins,,,,
Wilinda Blueberry Patch,730 Frankton Rd,Hood River,OR,,"730 Frankton Rd, Hood River, Oregon 97031","U-Pick Farm, Orchard",Blueberries,,,,
Willims Fruit Ranch,2455 W South Slope Rd,Emmett,ID,,"2455 W South Slope Rd, Emmett, Idaho 83617","U-Pick Farm, Orchard","Apples, Cherries, Peaches, Plums",,,,
Wilson’s Orchard,4823 Dingleberry Road NE,Iowa City,IA,,"4823 Dingleberry Road NE, Iowa City, Iowa 52240","U-Pick Farm, Orchard",Apples,,,,
Wilton Blueberry,83 McLaughlin Road,Wilton,ME,,"83 McLaughlin Road, Wilton, Maine 04294","U-Pick Farm, Orchard",Blueberries,,,,
Wind Drift Orchard,18499 NE 50th St,Harrah,OK,,"18499 NE 50th St, Harrah, Oklahoma 73045","U-Pick Farm, Orchard","Nectarines, Peaches",,,,
Wind Harvest Farm,830 Henry Rd,Morril,NE,,"830 Henry Rd, Morril, Nebraska 69358","U-Pick Farm, Orchard",Raspberries,,,,
Wind Ridge Farm,3511 Highway F,New Melle,MO,,"3511 Highway F, New Melle, Missouri 63365","U-Pick Farm, Orchard","Blackberries, Blueberries, Peaches",,,,
Windy Creek Vineyards,3295 Union Hill Road,Sanger,,,"3295 Union Hill Road, Sanger, 1041 76266","U-Pick Farm, Orchard","Grapes, Peaches, Plums",,,,
Winslow Farm,291 Gray rd,Falmouth,ME,04105,"291 Gray rd, Falmouth, ME 04105","U-Pick Farm, Orchard",Blueberries,,,,
Wohletz Farm Fresh,1831 N 1100 Rd,Lawrence,KS,,"1831 N 1100 Rd, Lawrence, Kansas 66046","U-Pick Farm, Orchard",Strawberries,,,,
Woodland Berry Farms,10821 Pierce Street,Zeeland,MI,,"10821 Pierce Street, Zeeland, Michigan 49464","U-Pick Farm, Orchard","Blueberries, Strawberries",,,,
Wye Mountain Flowers & Berries,20309 Hwy 113,Roland,AR,,"20309 Hwy 113, Roland, Arkansas 72135","U-Pick Farm, Orchard","Blackberries, Blueberries, Raspberries",,,,
Ya Ya Farm & Orchard,6914 Ute Hwy,Longmont,CO,,"6914 Ute Hwy, Longmont, Colorado 80503","U-Pick Farm, Orchard",Apples,,,,
Yoder’s Upick Strawberry Patch,65800 County Road 33,Goshen,IN,,"65800 County Road 33, Goshen, Indiana 46526","U-Pick Farm, Orchard",Strawberries,,,,
Young Harvest Farm,2955 Beulah Church Rd,Arrington,TN,37014,"2955 Beulah Church Rd, Arrington, TN 37014",Farm MarketFestival,"Cut Flowers, Flowers",,,,
Youngman Family Farm,472654 E 700 Rd,Westville,OK,74965,"472654 E 700 Rd, Westville, OK 74965","U-Pick Farm, Orchard","Blackberries, Blueberries",,,,
Zettel Farms,7886 County Road A,Baileys Harbor,,,"7886 County Road A, Baileys Harbor,  54202","U-Pick Farm, Orchard",Cherries,,,,
"Zimmerman’s Berry Farm, LLC",2260 Revere Road,Marshall,NC,28753,"2260 Revere Road, Marshall, NC 28753","U-Pick Farm, Orchard","Black Raspberries, Blackberries",,,,
Zurbrugg Blueberries,11834 Evergreen Rd. NE,Silverton,OR,,"11834 Evergreen Rd. NE, Silverton, Oregon 97381","U-Pick Farm, Orchard",Blueberries,,,,
